<?xml version="1.0" encoding="UTF-8"?>
<kml xmlns="http://www.opengis.net/kml/2.2" xmlns:gx="http://www.google.com/kml/ext/2.2" xmlns:kml="http://www.opengis.net/kml/2.2" xmlns:atom="http://www.w3.org/2005/Atom">
<Document>
	<name>PARANDUR Site.kml</name>
	<open>1</open>
	<Style id="inline">
		<LineStyle>
			<color>ff00aaff</color>
			<width>3</width>
		</LineStyle>
	</Style>
	<StyleMap id="inline0">
		<Pair>
			<key>normal</key>
			<styleUrl>#inline1</styleUrl>
		</Pair>
		<Pair>
			<key>highlight</key>
			<styleUrl>#inline</styleUrl>
		</Pair>
	</StyleMap>
	<Style id="inline1">
		<LineStyle>
			<color>ff00aaff</color>
			<width>3</width>
		</LineStyle>
	</Style>
	<Placemark>
		<name>Circle Measure-10 Kms</name>
		<styleUrl>#inline0</styleUrl>
		<LineString>
			<tessellate>1</tessellate>
			<coordinates>
				79.86671519108715,12.92390704868094,0 79.8633218236842,12.91679414147493,0 79.8593055485163,12.90999650759725,0 79.85469696472765,12.903565853284,0 79.84953116886679,12.89755108949069,0 79.84384748711216,12.89199796056657,0 79.83768917564279,12.88694869707058,0 79.83110309144469,12.88244169534225,-7.081154781429788e-10 79.82413933605652,12.87851122623714,0 79.81685087495508,12.87518717521494,0 79.80929313545603,12.87249481573079,0 79.8015235861594,12.8704546176298,0 79.79360130110227,12.86908209198062,-7.081154781429788e-10 79.7855865118897,12.86838767351066,-7.081154781429788e-10 79.77754015116089,12.86837664152316,0 79.76952339080903,12.86904907988827,0 79.76159717841101,12.87039987640737,0 79.75382177533558,12.8724187615557,-7.081154781429788e-10 79.74625629998673,12.875090386313,0 79.73895827960237,12.87839443849975,0 79.73198321396791,12.88230579674782,-7.081154781429788e-10 79.72538415431873,12.88679472095203,0 79.71921130059778,12.89182707777528,0 79.71351162010245,12.89736459951583,0 79.70832849040195,12.90336517439384,-7.081154781429788e-10 79.70370136923059,12.90978316607652,0 79.69966549386875,12.91656976003927,-7.081154781429788e-10 79.69625161230761,12.92367333415566,-7.081154781429788e-10 79.69348574826337,12.93103985072381,0 79.69138900185752,12.93861326697113,-7.081154781429788e-10 79.6899773875181,12.94633596093652,0 79.68926171038035,12.95414916950824,-7.081154781429788e-10 79.68924748217933,12.96199343529929,0 79.68993487733097,12.96980905897016,-7.081154781429788e-10 79.69131872959541,12.97753655356257,0 79.69338856940897,12.98511709738736,-7.081154781429788e-10 79.69612870166166,12.9924929820153,0 79.69951832338592,12.99960805195205,-7.081154781429788e-10 79.70353168051543,13.00640813263686,-7.081154781429788e-10 79.70813826256952,13.01284144348888,0 79.71330303382184,13.01885899283517,0 79.71898669922689,13.02441495168892,0 79.72514600310311,13.02946700350526,0 79.73173405831135,13.03397666722286,-7.081154781429788e-10 79.73870070342539,13.03790959110277,0 79.74599288516589,13.04123581509802,0 79.75355506316758,13.04392999972851,0 79.76132963396873,13.04597161969276,-7.081154781429788e-10 79.76925737095597,13.04734512071927,0 79.77727787686953,13.04804003844414,0 79.78533004537051,13.04805107839441,-7.081154781429788e-10 79.79335252809886,13.04737815645801,0 79.80128420360538,13.0460263995267,0 79.80906464452707,13.04400610630705,0 79.81663457938718,13.04133266860307,-7.081154781429788e-10 79.82393634544761,13.03802645368,0 79.83091432911266,13.03411264861987,0 79.83751539048438,13.02962106787322,0 79.84368926879907,13.02458592549504,-7.081154781429788e-10 79.84938896562821,13.01904557382481,0 79.85457110290703,13.01304221062835,-7.081154781429788e-10 79.85919625305611,13.00662155696002,0 79.86322923868416,12.99983250822737,0 79.8666393996034,12.99272676114349,0 79.86940082514764,12.98535841943459,0 79.87149255005679,12.97778358132894,-7.081154781429788e-10 79.87289871247815,12.97005991198989,0 79.87360867292966,12.96224620416523,0 79.87361709337424,12.95440193041143,0 79.87292397586099,12.94658679030995,0 79.87153466050012,12.93886025612613,0 79.86945978284827,12.93128112036777,0 79.86671519108715,12.92390704868094,0 
			</coordinates>
		</LineString>
	</Placemark>
</Document>
</kml>
