<?xml version="1.0" encoding="UTF-8"?>
<kml xmlns="http://www.opengis.net/kml/2.2" xmlns:gx="http://www.google.com/kml/ext/2.2" xmlns:kml="http://www.opengis.net/kml/2.2" xmlns:atom="http://www.w3.org/2005/Atom">
<Document>
	<name>PARANDUR Airport Boundary.kml</name>
	<StyleMap id="Style1">
		<Pair>
			<key>normal</key>
			<styleUrl>#Style11</styleUrl>
		</Pair>
		<Pair>
			<key>highlight</key>
			<styleUrl>#Style10</styleUrl>
		</Pair>
	</StyleMap>
	<Style id="Style10">
		<LineStyle>
			<color>ffffff00</color>
			<width>3.4</width>
		</LineStyle>
		<PolyStyle>
			<color>ff0f1ec8</color>
		</PolyStyle>
	</Style>
	<Style id="Style11">
		<LineStyle>
			<color>ffffff00</color>
			<width>3.4</width>
		</LineStyle>
		<PolyStyle>
			<color>ff0f1ec8</color>
		</PolyStyle>
	</Style>
	<Placemark>
		<name>Style1</name>
		<styleUrl>#Style1</styleUrl>
		<MultiGeometry>
			<LineString>
				<coordinates>
					79.74942969600001,12.962795648,91.404 79.8028550523,12.9813599631,91.47799999999999 79.80300059850001,12.9753901838,91.48 79.8015419835,12.9746371626,91.47799999999999 79.8015527053,12.9723982938,91.47799999999999 79.8032465344,12.9728851021,91.48 79.8037730028,12.9631234384,91.483 79.7859622105,12.9577173012,91.459 79.7856110159,12.955498555,91.458 79.78507849899999,12.9550461817,91.458 79.7845765908,12.955033129,91.45699999999999 79.7844040742,12.954603857,91.45699999999999 79.78434233820001,12.9544502396,91.45699999999999 79.7846647443,12.9543256017,91.45699999999999 79.7842857526,12.9520003665,91.45699999999999 79.7838587178,12.9520673208,91.45699999999999 79.78379045299999,12.9516484867,91.45699999999999 79.7836025559,12.9511188207,91.456 79.78372430269999,12.9507659035,91.45699999999999 79.78438957039999,12.9508439891,91.458 79.78445522840001,12.9503058672,91.458 79.78555920709999,12.9500383665,91.459 79.78481672700001,12.942987954,91.45999999999999 79.780214195,12.9430789379,91.453 79.7802399966,12.9443351559,91.453 79.777137661,12.9443964361,91.44799999999998 79.7771522334,12.9451063669,91.44799999999998 79.7768802697,12.9453877518,91.44799999999998 79.7768916863,12.9469624193,91.447 79.7768975326,12.9477688305,91.447 79.7769009184,12.9482358559,91.447 79.7764437064,12.9487598754,91.446 79.77676540820001,12.9493612381,91.447 79.77601929879999,12.9496389164,91.446 79.77421875660001,12.9468561378,91.443 79.7706194284,12.9448521801,91.43899999999999 79.7708957656,12.9430164367,91.43899999999999 79.7708248031,12.9419101254,91.43899999999999 79.7712089539,12.9418864198,91.44 79.77114015959999,12.9408139337,91.44 79.7723416715,12.9402114407,91.44199999999999 79.7721394692,12.9398235058,91.44199999999999 79.7717439578,12.9400218342,91.441 79.7717716632,12.9396276503,91.441 79.7725008509,12.9389000129,91.44199999999999 79.7728491439,12.9379643823,91.443 79.77342235810001,12.9378920966,91.444 79.7742015506,12.9342544651,91.446 79.77463986079999,12.9322081719,91.447 79.7732154606,12.9319146268,91.44499999999999 79.7732988156,12.931525481,91.44499999999999 79.7701864472,12.9314050195,91.44 79.77021195010001,12.9307711542,91.441 79.7708588805,12.9305646449,91.44199999999999 79.7705466651,12.9280325471,91.44199999999999 79.7698741766,12.9281123269,91.441 79.7700761661,12.9253072284,91.441 79.7709442787,12.925367372,91.443 79.77058351540001,12.9241956059,91.44199999999999 79.76987697200001,12.924404907,91.441 79.7697700324,12.9232063025,91.441 79.7697802584,12.9211175784,91.44199999999999 79.7705494531,12.9200071882,91.443 79.76958601690001,12.918483605,91.44199999999999 79.7654628965,12.9171385864,91.43600000000001 79.7629449821,12.9166392966,91.432 79.7611535476,12.9162840484,91.43000000000001 79.7598537299,12.9162497345,91.428 79.75536628,12.9163408673,91.42100000000001 79.75525608469999,12.9274363881,91.419 79.7537970756,12.9290147425,91.417 79.74955262580001,12.929015867,91.41 79.74942969600001,12.962795648,91.404 
				</coordinates>
			</LineString>
		</MultiGeometry>
	</Placemark>
</Document>
</kml>
