<?xml version="1.0" encoding="UTF-8"?>
<kml xmlns="http://www.opengis.net/kml/2.2" xmlns:gx="http://www.google.com/kml/ext/2.2" xmlns:kml="http://www.opengis.net/kml/2.2" xmlns:atom="http://www.w3.org/2005/Atom">
<Document>
	<name>Pannur site.kml</name>
	<open>1</open>
	<Style id="inline">
		<LineStyle>
			<color>ff00ffff</color>
			<width>2.6</width>
		</LineStyle>
	</Style>
	<Style id="inline0">
		<LineStyle>
			<color>ff00ffff</color>
			<width>2.6</width>
		</LineStyle>
	</Style>
	<StyleMap id="inline1">
		<Pair>
			<key>normal</key>
			<styleUrl>#inline</styleUrl>
		</Pair>
		<Pair>
			<key>highlight</key>
			<styleUrl>#inline0</styleUrl>
		</Pair>
	</StyleMap>
	<Placemark>
		<name>Circle Measure-10 Kms</name>
		<styleUrl>#inline1</styleUrl>
		<LineString>
			<tessellate>1</tessellate>
			<coordinates>
				79.949855830988,12.93441994037283,0 79.94443855951077,12.9285985944823,0 79.93852159031235,12.92325944419742,0 79.93214994978538,12.9184430914705,0 79.92537211327867,12.91418616039341,-7.081154781429788e-10 79.91823963668324,12.91052101941001,0 79.91080676489915,12.9074755358589,-7.081154781429788e-10 79.90313002013878,12.90507286468794,0 79.89526777316416,12.90333127292461,0 79.88727980067993,12.90226400121748,-7.081154781429788e-10 79.8792268322009,12.9018791634858,0 79.87117008978906,12.90217968542827,-7.081154781429788e-10 79.86317082410523,12.90316328235149,0 79.85528985024651,12.90482247648385,0 79.84758708684319,12.90714465364531,-7.081154781429788e-10 79.8401211018639,12.91011215884891,-7.081154781429788e-10 79.83294866853178,12.91370243011851,0 79.82612433468201,12.91788816952025,0 79.81970000879365,12.92263755012669,-7.081154781429788e-10 79.81372456581239,12.92791445736184,-7.081154781429788e-10 79.80824347573623,12.93367876291648,-1.416230956285958e-09 79.80329845777383,12.93988662917748,-7.081154781429788e-10 79.79892716270129,12.94649084188308,0 79.79516288583692,12.95344116850195,0 79.79203431283356,12.96068473963729,0 79.78956530024563,12.96816645058023,0 79.78777469257474,12.97582937998143,0 79.78667617722726,12.98361522247617,0 79.78627817853643,12.99146473198823,0 79.78658379171009,12.99931817235244,0 79.78759075726482,13.00711577183507,0 79.78929147620246,13.01479817809662,0 79.7916730658747,13.02230691013301,0 79.7947174561706,13.02958480374886,0 79.79840152535242,13.03657644716086,0 79.80269727455752,13.04322860339958,0 79.80757203968422,13.04949061627434,0 79.81298873908581,13.05531479678739,0 79.81890615521696,13.06065678702927,0 79.82527924810597,13.06547589875697,-7.081154781429788e-10 79.83205949827519,13.06973542404766,0 79.83919527649627,13.07340291563342,0 79.84663223755122,13.07645043475353,-7.081154781429788e-10 79.85431373497721,13.07885476461015,0 79.86218125360463,13.08059758777725,0 79.8701748565519,13.08166562619043,0 79.87823364322482,13.08205074263439,-7.081154781429788e-10 79.88629621477783,13.0817500029418,0 79.89430114343391,13.08076569842235,-7.081154781429788e-10 79.90218744202869,13.07910532834771,0 79.9098950301421,13.07678154262855,0 79.91736519320891,13.07381204512726,0 79.92454103105673,13.07021945835521,0 79.93136789240624,13.06603115060187,0 79.93779379198197,13.06127902683293,0 79.94376980702319,13.05599928497416,0 79.9492504501509,13.0502321394634,0 79.95419401573734,13.04402151420437,0 79.95856289713689,13.03741470728948,-7.081154781429788e-10 79.96232387236979,13.0304620300736,0 79.96544835610194,13.02321642337498,-7.081154781429788e-10 79.96791261602941,13.0157330537518,0 79.96969795205746,13.0080688929513,0 79.97079083695552,13.00028228375347,0 79.97118301746805,12.99243249553026,-7.081154781429788e-10 79.970871575169,12.98457927291529,0 79.96985894665599,12.97678238102614,0 79.96815290299273,12.96910115070255,0 79.96576648861618,12.96159402721853,0 79.96271792023319,12.95431812589463,0 79.95903044653055,12.94732879797965,0 79.95473216981568,12.94067921008808,0 79.949855830988,12.93441994037283,0 
			</coordinates>
		</LineString>
	</Placemark>
</Document>
</kml>
