<?xml version="1.0" encoding="UTF-8"?>
<kml xmlns="http://www.opengis.net/kml/2.2" xmlns:gx="http://www.google.com/kml/ext/2.2" xmlns:kml="http://www.opengis.net/kml/2.2" xmlns:atom="http://www.w3.org/2005/Atom">
<Document>
	<name>Thiruporur site.kml</name>
	<StyleMap id="inline0">
		<Pair>
			<key>normal</key>
			<styleUrl>#inline8</styleUrl>
		</Pair>
		<Pair>
			<key>highlight</key>
			<styleUrl>#inline10</styleUrl>
		</Pair>
	</StyleMap>
	<Style id="inline10">
		<LineStyle>
			<color>ff0000ff</color>
			<width>4</width>
		</LineStyle>
	</Style>
	<Style id="inline8">
		<LineStyle>
			<color>ff0000ff</color>
			<width>4</width>
		</LineStyle>
	</Style>
	<Placemark>
		<name>Circle Measure-Thiruporur site- 10 Kms</name>
		<description>Circle Measure-Thiruporur site- 10 Kms</description>
		<styleUrl>#inline0</styleUrl>
		<LineString>
			<tessellate>1</tessellate>
			<coordinates>
				80.26433843240255,12.64305872179697,-27.68242615511096 80.25759589412253,12.63871151751917,-21.73457746947595 80.25049093176399,12.63495407947637,-17.02636931870046 80.24307758288005,12.63181497755143,-13.75717291079884 80.23541222314725,12.629318079122,-8.047653566101387 80.22755313866146,12.62748236811264,-1.060889688515017 80.21956008392002,12.62632180108865,9.552382918339637 80.21149382880711,12.62584520146984,21.36900665716609 80.20341569797725,12.62605619265633,22.26417581124743 80.19538710608671,12.62695317056723,28.47082030262865 80.18746909235091,12.6285293157977,28.07526380010471 80.17972185791213,12.63077264530345,26.44675889727001 80.17220430948068,12.63366610322561,23.89283265158781 80.16497361266896,12.63718769017605,25.96475341386454 80.15808475836768,12.64131063001442,27.64873249679641 80.15159014542148,12.64600357286729,25.72403871725166 80.14553918274368,12.65123083286693,25.2812629035631 80.13997791387102,12.65695265882596,23.40754514074747 80.13494866679757,12.66312553581529,23.72431240841489 80.13048973174425,12.66970251537878,28.12159025129541 80.12663506931885,12.67663357190039,31.1979911623413 80.12341405129924,12.68386598244004,27.06940517992902 80.12085123603482,12.6913447271744,29.34646965873797 80.11896618020693,12.69901290741968,32.01229749851408 80.11777328842028,12.70681217807687,39.1266705647594 80.11728170181728,12.7146831912265,42.87878438983894 80.1174952266156,12.72256604751057,43.30237107848901 80.11841230317003,12.73040075187602,38.40934201422987 80.1200260158537,12.73812767021525,34.88996662911426 80.12232414374414,12.74568798342776,31.58102153825602 80.12528925178752,12.75302413544133,26.93027951695305 80.12889882180428,12.76008027177191,29.42150822542257 80.13312542239076,12.76680266526914,26.59114755347703 80.13793691646944,12.77314012578748,28.2393218252675 80.14329670494652,12.77904439064154,25.52539484792633 80.14916400465115,12.7844704928478,27.04165592162406 80.15549415846034,12.78937710432164,25.60942029225406 80.16223897525833,12.79372685138799,22.15735583510223 80.16934709714043,12.79748660017435,19.42013056975998 80.17676439105406,12.80062770968473,21.87157919884882 80.18443436187309,12.80312625060054,25.07094766249236 80.19229858372832,12.80496318811764,24.55719721491373 80.20029714626982,12.80612452740593,22.75320634402876 80.20836911241511,12.80660142056588,13.19496772847301 80.21645298404491,12.80639023425425,13.0595157799275 80.22448717204202,12.80549257745533,17.38256174694105 80.23241046703504,12.80391528918272,13.97166639291327 80.24016250720189,12.80167038620673,11.59758038816799 80.24768423951237,12.79877497121239,11.3304490414334 80.25491837084238,12.79525110209882,12.87221310509487 80.26180980547498,12.79112562343159,11.69206619789649 80.2683060656135,12.7864299613514,5.048786302033107 80.27435769166982,12.78119988352465,-4.058004409261821 80.27991861925386,12.77547522598957,-11.54300926632388 80.284946529979,12.76929958900601,-16.47641478269504 80.28940317340577,12.76272000425336,-18.70389091530958 80.29325465767974,12.7557865759396,-22.34787613426699 80.29647170666568,12.74855209858175,-26.02868656231038 80.29902988164702,12.74107165439403,-28.01581462722519 80.3009097659379,12.73340219337244,-28.82335088941101 80.30209711104563,12.72560209929294,-29.96253066926316 80.30258294332063,12.71773074494341,-28.66384962629642 80.30236363033788,12.70984803998715,-25.85526031382732 80.30144090656235,12.70201397490683,-24.00470359561137 80.29982185816408,12.69428816450266,-21.94916520600923 80.29751886715836,12.68672939441641,-22.18312672214611 80.29454951535449,12.67939517412536,-24.8726946013913 80.29093644889885,12.67234129979588,-29.94815625078998 80.28670720449244,12.66562143030696,-34.85639873423297 80.28189399864843,12.65928667965001,-37.90392769962416 80.27653348162768,12.6533852287833,-39.00632707285664 80.27066645795119,12.6479619598688,-33.6448120245186 80.26433843240255,12.64305872179697,-27.68242615511096 
			</coordinates>
		</LineString>
	</Placemark>
</Document>
</kml>
