<?xml version="1.0" encoding="utf-8" ?>
<kml xmlns="http://www.opengis.net/kml/2.2">
<Document id="root_doc">
<Schema name="pmcwater_body" id="pmcwater_body">
	<SimpleField name="OBJECTID_1" type="float"></SimpleField>
	<SimpleField name="REMARK" type="string"></SimpleField>
	<SimpleField name="AREA" type="float"></SimpleField>
	<SimpleField name="Shape_Length" type="float"></SimpleField>
	<SimpleField name="Shape_Area" type="float"></SimpleField>
</Schema>
<Folder><name>pmcwater_body</name>
  <Placemark id="pmcwater_body.1">
	<name>मुळा-मुठा नदी</name>
	<Style><LineStyle><color>ff0000ff</color></LineStyle><PolyStyle><fill>0</fill></PolyStyle></Style>
	<ExtendedData><SchemaData schemaUrl="#pmcwater_body">
		<SimpleData name="OBJECTID_1">1</SimpleData>
		<SimpleData name="REMARK">MULA-MUTHA RIVER</SimpleData>
		<SimpleData name="AREA">1932790</SimpleData>
		<SimpleData name="Shape_Length">20486.8134076449</SimpleData>
		<SimpleData name="Shape_Area">1935561.20894114</SimpleData>
	</SchemaData></ExtendedData>
      <MultiGeometry><Polygon><outerBoundaryIs><LinearRing><coordinates>73.91094254,18.53977156 73.91070272,18.53980022 73.91033991,18.53983139 73.90997203,18.53987936 73.90974998,18.53990193 73.90958227,18.53995695 73.90947107,18.5400201 73.90935285,18.54008301 73.9091873,18.54019117 73.90906633,18.54023391 73.90883214,18.54029957 73.90856847,18.54038146 73.90833177,18.54046079 73.90820641,18.54050136 73.90794331,18.54055182 73.90755591,18.54061936 73.90733136,18.54063967 73.906984,18.54065343 73.9066752,18.54063704 73.90664972,18.54063707 73.90646494,18.54062485 73.9062743,18.54062636 73.90609799,18.54062591 73.90582125,18.54059217 73.90555463,18.54054589 73.90526697,18.54053118 73.90495739,18.54049078 73.90438768,18.54041112 73.90420551,18.54033286 73.90389684,18.54030193 73.90378831,18.54027367 73.90316543,18.54030877 73.90107176,18.54035481 73.90080522,18.54039295 73.89893632,18.54066528 73.8975065,18.54081892 73.89342642,18.5421376 73.88995615,18.54257048 73.88946071,18.54256699 73.88899802,18.542531 73.88849726,18.5426029 73.88808494,18.54254686 73.88799371,18.54251486 73.88773064,18.54242439 73.88755575,18.5424802 73.88751861,18.5424277 73.88724393,18.54245891 73.88717637,18.54245534 73.88696089,18.54240449 73.88689236,18.5423296 73.88660538,18.54237142 73.88631083,18.54240766 73.88610739,18.54235996 73.88598666,18.54224508 73.88558209,18.54211683 73.88541982,18.5419834 73.8852586,18.54203456 73.88506994,18.54218757 73.88349607,18.54197069 73.88305622,18.54182909 73.88275089,18.5417312 73.88239226,18.54181596 73.88197317,18.5418906 73.88041592,18.54171341 73.87996285,18.54162665 73.87950565,18.54153235 73.87902837,18.54146252 73.87827881,18.54116345 73.87802686,18.54111603 73.87778334,18.54104136 73.87751574,18.54091574 73.87723917,18.5407888 73.87721278,18.54095389 73.87681306,18.54085082 73.8766988,18.54075664 73.87660713,18.54071914 73.87622089,18.54064554 73.87581006,18.54052051 73.87526474,18.54033986 73.87462955,18.54011872 73.87351566,18.53963857 73.8723776,18.53913497 73.87087989,18.53810338 73.87058314,18.53805739 73.87012486,18.53770836 73.86941418,18.53687908 73.86931974,18.53679765 73.86894613,18.53615239 73.86880974,18.53593187 73.86873404,18.53580487 73.86865578,18.53572505 73.86847866,18.53555105 73.86800338,18.53512456 73.86776687,18.53488719 73.86767595,18.53476936 73.8675567,18.53447291 73.86760836,18.5342629 73.86716507,18.53372873 73.86710161,18.53366738 73.86684473,18.53352852 73.86651771,18.5332344 73.86623831,18.53303532 73.8657489,18.53279707 73.86538632,18.53249247 73.86529635,18.5324642 73.86499232,18.53236744 73.86467171,18.53223413 73.86388029,18.5325397 73.86381748,18.53261187 73.86342034,18.53254979 73.86327792,18.5324616 73.86261585,18.53199261 73.8625358,18.53190588 73.86178888,18.53139529 73.86187026,18.53131958 73.86149356,18.53089219 73.86145497,18.53087374 73.86138167,18.5307917 73.86133563,18.53076849 73.86132641,18.53076383 73.86128117,18.53074102 73.86128027,18.5307452 73.86127868,18.53074919 73.86127646,18.5307529 73.86127367,18.53075624 73.86127036,18.53075911 73.86126663,18.53076146 73.86126255,18.53076322 73.86125883,18.5307642 73.86125824,18.53076435 73.86125379,18.53076483 73.86124932,18.53076464 73.86124734,18.53076426 73.8601788,18.53077003 73.86017888,18.53077096 73.85989516,18.53077156 73.86002247,18.53195234 73.86026513,18.5320436 73.86065241,18.53218925 73.86163475,18.53340767 73.86253374,18.53524557 73.86315956,18.53613162 73.86380201,18.53728575 73.86410251,18.53757342 73.86527406,18.53865138 73.86530909,18.53867955 73.86603872,18.53901545 73.86704059,18.53956813 73.86793233,18.5398791 73.87147365,18.54118633 73.87255144,18.54156716 73.87343408,18.54191373 73.8741605,18.54220894 73.87465595,18.54235599 73.8748841,18.54248845 73.87592115,18.54317225 73.87754098,18.54335616 73.87777673,18.54333053 73.8779181,18.54337873 73.87828062,18.54350732 73.87864824,18.54352884 73.87940508,18.54351565 73.88165221,18.54395378 73.88298868,18.54421311 73.88451592,18.54448933 73.88474124,18.54459375 73.88503552,18.54453141 73.88523606,18.54455344 73.88545796,18.54456 73.88635679,18.54472652 73.88740371,18.54492168 73.88762187,18.54494175 73.88784788,18.544955 73.88811888,18.54496075 73.8887782,18.54473306 73.88893018,18.54473801 73.8897527,18.54468699 73.89000516,18.5446734 73.89005355,18.54466932 73.8912605,18.54459994 73.8921432,18.54453633 73.89351865,18.54439434 73.8939328,18.54363215 73.89664825,18.54346524 73.897513,18.54335297 73.89759183,18.54334136 73.89828141,18.54321152 73.90030372,18.54289809 73.90078731,18.54269775 73.9012577,18.54250902 73.90163616,18.54241984 73.90367498,18.54219094 73.90627239,18.54205346 73.9067121,18.54208694 73.90718206,18.54205441 73.90787041,18.54203871 73.90838513,18.54200539 73.90872248,18.54198766 73.9087984,18.5419553 73.9088815,18.54187378 73.90904743,18.54175665 73.9091493,18.54172192 73.90922191,18.54171575 73.90930134,18.5417261 73.90940497,18.54173328 73.9095121,18.5417339 73.90971258,18.54172847 73.91003083,18.5416809 73.91054051,18.54162105 73.91106946,18.54159116 73.91136669,18.54158958 73.91170699,18.54155842 73.91199414,18.54151066 73.91229882,18.54142348 73.91271537,18.54132009 73.91336708,18.54113623 73.91394058,18.54101607 73.91454456,18.54091498 73.91528571,18.54080815 73.91586185,18.54077224 73.91623897,18.54076787 73.91685407,18.54070509 73.91754702,18.54063064 73.91827428,18.54054985 73.91900869,18.54042335 73.91978423,18.54029709 73.92046805,18.54012991 73.92133978,18.53997151 73.92216339,18.53983244 73.92260225,18.53982187 73.92277426,18.53977055 73.92286331,18.53968669 73.92291713,18.53957309 73.92294429,18.53947622 73.92300657,18.53942595 73.92324588,18.53937669 73.92344522,18.5393483 73.92375025,18.53940488 73.92408189,18.53945317 73.92428074,18.53950493 73.92453735,18.53951904 73.92473224,18.53949484 73.92501788,18.53939001 73.92528414,18.53927763 73.92549583,18.5392111 73.92567465,18.53917051 73.92586922,18.53914893 73.92607578,18.53911228 73.92638162,18.53906485 73.92668353,18.53900983 73.92693565,18.5389575 73.92720989,18.53888719 73.9274604,18.53880163 73.92779446,18.53868249 73.92805705,18.53857052 73.92870937,18.53829674 73.92897639,18.53824318 73.92923018,18.5381726 73.92972999,18.53800552 73.93007286,18.53790578 73.93028223,18.5378307 73.93050504,18.53773876 73.93105836,18.5375168 73.93134335,18.53743367 73.9315124,18.53740921 73.93184231,18.53736435 73.93211804,18.53734049 73.93255104,18.53725357 73.93278229,18.53723369 73.93304905,18.53722249 73.93337808,18.53720316 73.93371166,18.53716692 73.93438074,18.53714505 73.93461188,18.53714212 73.93483877,18.53710951 73.93518137,18.53705212 73.93544106,18.53696815 73.93560598,18.53689282 73.93597554,18.53678898 73.93597162,18.53458205 73.93563548,18.53467075 73.93554767,18.53469179 73.93511099,18.53482914 73.93486659,18.53486035 73.93438022,18.53489971 73.93402283,18.5349344 73.93354172,18.53497608 73.93306529,18.53514579 73.93249878,18.53533391 73.93237603,18.53535733 73.93199129,18.5355832 73.93135148,18.53581159 73.93016588,18.53596566 73.92905928,18.53664783 73.92764075,18.5369351 73.92709134,18.5370287 73.92678465,18.53713373 73.92609038,18.53742781 73.92485945,18.53775091 73.92419057,18.53792457 73.92388743,18.53795632 73.92316419,18.5380252 73.92191843,18.53816631 73.91982476,18.53819373 73.91687154,18.53832114 73.91624312,18.53832911 73.91556929,18.53850542 73.9145789,18.53890469 73.91445306,18.5388897 73.91409359,18.53896175 73.91370342,18.53900661 73.91354886,18.53904756 73.9126073,18.53921027 73.91235861,18.53925159 73.91101508,18.5394854 73.91104413,18.53965333 73.9110603,18.53975062 73.91094254,18.53977156</coordinates></LinearRing></outerBoundaryIs><innerBoundaryIs><LinearRing><coordinates>73.86349993,18.53436324 73.86362204,18.53396418 73.86389359,18.53405268 73.86468127,18.53453288 73.8654486,18.53465951 73.8661297,18.53479712 73.86732974,18.53551795 73.86762499,18.53584416 73.86963508,18.53888405 73.86793877,18.53870477 73.86598437,18.53752018 73.86510874,18.53681298 73.86419472,18.53589619 73.86397221,18.53552601 73.86349993,18.53436324</coordinates></LinearRing></innerBoundaryIs><innerBoundaryIs><LinearRing><coordinates>73.86522596,18.53432267 73.86374534,18.53386564 73.86343201,18.53347603 73.86372279,18.53325577 73.86405797,18.53319626 73.86458293,18.53311603 73.86493175,18.53315203 73.86565495,18.5335547 73.865996,18.53380805 73.8664266,18.53422861 73.86652626,18.53432594 73.8668572,18.53464916 73.86634803,18.53453771 73.86619415,18.53450402 73.86570486,18.53439691 73.86522596,18.53432267</coordinates></LinearRing></innerBoundaryIs></Polygon></MultiGeometry>
  </Placemark>
  <Placemark id="pmcwater_body.2">
	<name></name>
	<Style><LineStyle><color>ff0000ff</color></LineStyle><PolyStyle><fill>0</fill></PolyStyle></Style>
	<ExtendedData><SchemaData schemaUrl="#pmcwater_body">
		<SimpleData name="OBJECTID_1">2</SimpleData>
		<SimpleData name="REMARK">MULA RIVER</SimpleData>
		<SimpleData name="AREA">19362.69921875</SimpleData>
		<SimpleData name="Shape_Length">964.110408021701</SimpleData>
		<SimpleData name="Shape_Area">19362.668131949</SimpleData>
	</SchemaData></ExtendedData>
      <MultiGeometry><Polygon><outerBoundaryIs><LinearRing><coordinates>73.87217308,18.5654061 73.8721863,18.56497352 73.87205059,18.56517258 73.87173727,18.56611785 73.87191403,18.56738721 73.8719291,18.56752792 73.87251028,18.56830246 73.8725421,18.56854958 73.87253924,18.56878092 73.87258594,18.56888167 73.87282013,18.56892896 73.87292981,18.56895362 73.87303885,18.56882326 73.87306518,18.56857077 73.87286522,18.56822303 73.87270341,18.56795891 73.87238174,18.56721011 73.87234471,18.56687886 73.87222976,18.56629741 73.87219456,18.5658129 73.87217308,18.5654061</coordinates></LinearRing></outerBoundaryIs></Polygon></MultiGeometry>
  </Placemark>
  <Placemark id="pmcwater_body.3">
	<name></name>
	<Style><LineStyle><color>ff0000ff</color></LineStyle><PolyStyle><fill>0</fill></PolyStyle></Style>
	<ExtendedData><SchemaData schemaUrl="#pmcwater_body">
		<SimpleData name="OBJECTID_1">3</SimpleData>
		<SimpleData name="REMARK"></SimpleData>
		<SimpleData name="AREA">343965</SimpleData>
		<SimpleData name="Shape_Length">5411.10551740952</SimpleData>
		<SimpleData name="Shape_Area">343964.827494766</SimpleData>
	</SchemaData></ExtendedData>
      <MultiGeometry><Polygon><outerBoundaryIs><LinearRing><coordinates>73.85600047,18.53328739 73.85760367,18.53205887 73.8584722,18.53176564 73.85961172,18.53179785 73.86002247,18.53195234 73.85989516,18.53077156 73.85840375,18.53073332 73.8573719,18.53088871 73.85632622,18.53146831 73.8560728,18.53163566 73.85577744,18.53185925 73.85523418,18.53227261 73.85507,18.53242937 73.8549356,18.53257204 73.85490983,18.53260004 73.85455173,18.53317186 73.85438512,18.53309787 73.85432631,18.53323896 73.85447164,18.53330514 73.85430247,18.53371092 73.85415719,18.53406956 73.85408008,18.5342679 73.85364552,18.5356196 73.85342517,18.53704245 73.85363367,18.53725057 73.85357897,18.53922838 73.85356853,18.54008184 73.85354304,18.5411547 73.85353086,18.54133125 73.85350557,18.54174233 73.85359839,18.54256968 73.85372575,18.54328072 73.85386529,18.54374607 73.85390654,18.54420569 73.85391069,18.54440433 73.85424118,18.5453002 73.85411447,18.54564076 73.85430695,18.54582939 73.85494788,18.54719076 73.85551227,18.54895215 73.85600544,18.54997612 73.8561999,18.55033835 73.85644756,18.55073942 73.85747147,18.55003809 73.85713584,18.54958911 73.85550982,18.54564271 73.85522552,18.54474535 73.85485624,18.54325617 73.85493282,18.54237019 73.85492045,18.54226343 73.85495504,18.54124279 73.85493969,18.54048296 73.85494674,18.54025563 73.85495117,18.53995875 73.85494053,18.53985795 73.85491926,18.53964285 73.85494815,18.53948433 73.8549752,18.5388546 73.85499904,18.53831932 73.85496443,18.53795126 73.85496903,18.5378488 73.85498707,18.53762555 73.85503697,18.53734685 73.8550298,18.53663251 73.8550603,18.53635905 73.85507831,18.53620765 73.85509832,18.5358822 73.85518451,18.53531435 73.85568082,18.53393174 73.85600047,18.53328739</coordinates></LinearRing></outerBoundaryIs></Polygon></MultiGeometry>
  </Placemark>
  <Placemark id="pmcwater_body.4">
	<name></name>
	<Style><LineStyle><color>ff0000ff</color></LineStyle><PolyStyle><fill>0</fill></PolyStyle></Style>
	<ExtendedData><SchemaData schemaUrl="#pmcwater_body">
		<SimpleData name="OBJECTID_1">4</SimpleData>
		<SimpleData name="REMARK">MULA-MUTHA RIVER</SimpleData>
		<SimpleData name="AREA">756642</SimpleData>
		<SimpleData name="Shape_Length">8273.61310309393</SimpleData>
		<SimpleData name="Shape_Area">727871.910901692</SimpleData>
	</SchemaData></ExtendedData>
      <MultiGeometry><Polygon><outerBoundaryIs><LinearRing><coordinates>73.93597188,18.53472806 73.93597243,18.53503933 73.93597245,18.53504813 73.93597262,18.53514637 73.93597375,18.53578391 73.93597554,18.53678898 73.93617578,18.53675198 73.93620013,18.53675468 73.93646311,18.53678391 73.9369789,18.53685929 73.93778468,18.53688317 73.93815678,18.53689671 73.93843255,18.53695548 73.93878378,18.53711004 73.93913078,18.5372989 73.93948305,18.53756139 73.93980926,18.53787983 73.94005118,18.53823595 73.94028939,18.53865872 73.94051907,18.53905292 73.94074928,18.53960661 73.94094215,18.54010828 73.94119602,18.54062219 73.94133461,18.54094844 73.94157341,18.54145927 73.94181684,18.54188663 73.94212475,18.54244357 73.94261662,18.54343926 73.942876,18.54383515 73.94306508,18.5441186 73.94329434,18.54440228 73.94360902,18.54467687 73.94401039,18.54493995 73.94435035,18.54518595 73.94468042,18.54540797 73.94499064,18.54559158 73.945361,18.54579468 73.94589843,18.54595199 73.94620396,18.54602556 73.94643811,18.54605141 73.94666206,18.54606002 73.94687071,18.54604646 73.94704076,18.54602778 73.94738409,18.54604681 73.94774451,18.54605618 73.94788361,18.54604714 73.94800491,18.54600118 73.94807957,18.5460016 73.94817993,18.54601198 73.94838941,18.54603765 73.94859534,18.54604616 73.94879087,18.54607179 73.94907936,18.5461355 73.94932407,18.54619715 73.94948954,18.5462885 73.94965529,18.54633463 73.94983689,18.54637332 73.95013723,18.54639006 73.95058953,18.54642517 73.95154779,18.54645422 73.9523192,18.54650596 73.95294934,18.54660181 73.95345666,18.54672806 73.95409336,18.54686211 73.95447558,18.54697981 73.95503445,18.54718923 73.95554887,18.54737367 73.95598496,18.54753631 73.95638783,18.54763467 73.95679089,18.54770099 73.95717161,18.54775651 73.95810178,18.54776164 73.95871843,18.54772232 73.95925085,18.54765709 73.9596744,18.54758929 73.96001529,18.54749911 73.96088814,18.5471438 73.96122951,18.54697471 73.96207201,18.54665903 73.96255831,18.54637688 73.96286637,18.54618612 73.96319068,18.54598006 73.96345826,18.54580447 73.96375243,18.54555885 73.96419857,18.54523798 73.96480633,18.5449026 73.96532432,18.54472069 73.96606188,18.54455405 73.96650672,18.54444871 73.96683004,18.54440429 73.9667781,18.54259403 73.96606677,18.54275135 73.96558113,18.54287376 73.96495195,18.54303152 73.96458405,18.54313545 73.96400114,18.54335906 73.96349257,18.54354973 73.96304673,18.54371503 73.96250128,18.54391726 73.96175505,18.54424251 73.96096518,18.54473384 73.96016061,18.5452343 73.96003917,18.54530178 73.96000318,18.54532177 73.9593463,18.54568674 73.959223,18.54575525 73.95886933,18.54587827 73.95875737,18.54588578 73.95832552,18.54591477 73.95807968,18.54587613 73.95744893,18.54577826 73.95710299,18.54572291 73.95651705,18.54562539 73.95600175,18.54552918 73.95553929,18.54543961 73.95476973,18.54528654 73.95464581,18.54526175 73.95372247,18.54498869 73.95283855,18.54472728 73.95279913,18.54471562 73.95231672,18.54457296 73.95173356,18.54447969 73.95135845,18.54447129 73.95135259,18.54447116 73.95108613,18.5444652 73.95082305,18.54445225 73.95044283,18.54443354 73.95005813,18.54446644 73.94998481,18.54447271 73.94997603,18.54447332 73.94964721,18.5444962 73.94955697,18.54450884 73.94901766,18.54461905 73.94848472,18.54467027 73.94829625,18.54468593 73.94774455,18.54473176 73.94721237,18.54477897 73.94701054,18.54478571 73.9466906,18.54478521 73.94635743,18.54473961 73.94613233,18.54468304 73.94612072,18.54467725 73.94599991,18.54462276 73.94563966,18.54436988 73.94527002,18.54410923 73.94490411,18.54384468 73.94416168,18.54318513 73.94374376,18.54258339 73.9431921,18.5417022 73.94291972,18.54103869 73.94257735,18.54044815 73.94238891,18.53996881 73.94228138,18.53969527 73.94227112,18.53966918 73.94212549,18.5392804 73.94209967,18.53921443 73.94206173,18.53911378 73.94195141,18.53890116 73.94191591,18.53883274 73.94180441,18.53861783 73.94154845,18.53813869 73.94081922,18.53680524 73.94075157,18.53668145 73.94072343,18.53662995 73.94039627,18.53603838 73.94032679,18.53599478 73.94012223,18.53586643 73.93999905,18.53579545 73.93971199,18.53563003 73.93966905,18.53560898 73.93922909,18.53539322 73.93855424,18.53510291 73.93855158,18.53510177 73.93846547,18.53506472 73.93770871,18.53491869 73.93718141,18.53481897 73.93663056,18.5347148 73.93626151,18.53471997 73.93609661,18.53472228 73.93607782,18.53472254 73.93597188,18.53472806</coordinates></LinearRing></outerBoundaryIs></Polygon></MultiGeometry>
  </Placemark>
  <Placemark id="pmcwater_body.5">
	<name></name>
	<Style><LineStyle><color>ff0000ff</color></LineStyle><PolyStyle><fill>0</fill></PolyStyle></Style>
	<ExtendedData><SchemaData schemaUrl="#pmcwater_body">
		<SimpleData name="OBJECTID_1">5</SimpleData>
		<SimpleData name="REMARK"></SimpleData>
		<SimpleData name="AREA">365629</SimpleData>
		<SimpleData name="Shape_Length">5516.75483466307</SimpleData>
		<SimpleData name="Shape_Area">365629.119059127</SimpleData>
	</SchemaData></ExtendedData>
      <MultiGeometry><Polygon><outerBoundaryIs><LinearRing><coordinates>73.87405653,18.55839994 73.87253612,18.55845498 73.8725669,18.55862275 73.87243447,18.56022989 73.87222663,18.56132388 73.87213153,18.56263307 73.87204358,18.56314849 73.87196441,18.56425053 73.87142846,18.5655821 73.8712954,18.56619417 73.87143421,18.56687835 73.87199793,18.56879305 73.87216712,18.5689937 73.87254045,18.57048107 73.87270708,18.57260829 73.87259094,18.57303578 73.87217738,18.57375586 73.87083367,18.57571571 73.87291983,18.5765941 73.87329688,18.57637794 73.8734514,18.57610874 73.8735978,18.57597969 73.87407517,18.57538245 73.87417197,18.575179 73.87428652,18.57493169 73.87384839,18.57457201 73.87385607,18.57431218 73.87396586,18.57399677 73.87398441,18.57392876 73.87443896,18.57341481 73.87476722,18.572893 73.87476851,18.57224313 73.87477386,18.57171607 73.87478838,18.57161781 73.87478244,18.57122044 73.87476967,18.57104598 73.87476271,18.5709811 73.87474644,18.5709141 73.87457157,18.57063611 73.87438345,18.56999316 73.8741889,18.56947195 73.87392007,18.56874512 73.87374304,18.56773185 73.87351017,18.56713684 73.873272,18.56561926 73.87323734,18.56530754 73.87338078,18.56379365 73.87356018,18.56162169 73.87385272,18.55963076 73.87405653,18.55839994</coordinates></LinearRing></outerBoundaryIs><innerBoundaryIs><LinearRing><coordinates>73.87303885,18.56882326 73.87292981,18.56895362 73.87282013,18.56892896 73.87258594,18.56888167 73.87253924,18.56878092 73.8725421,18.56854958 73.87251028,18.56830246 73.8719291,18.56752792 73.87191403,18.56738721 73.87173727,18.56611785 73.87205059,18.56517258 73.8721863,18.56497352 73.87217308,18.5654061 73.87219456,18.5658129 73.87222976,18.56629741 73.87234471,18.56687886 73.87238174,18.56721011 73.87253316,18.56755908 73.87270341,18.56795891 73.87286522,18.56822303 73.87306518,18.56857077 73.87303885,18.56882326</coordinates></LinearRing></innerBoundaryIs></Polygon></MultiGeometry>
  </Placemark>
  <Placemark id="pmcwater_body.6">
	<name></name>
	<Style><LineStyle><color>ff0000ff</color></LineStyle><PolyStyle><fill>0</fill></PolyStyle></Style>
	<ExtendedData><SchemaData schemaUrl="#pmcwater_body">
		<SimpleData name="OBJECTID_1">6</SimpleData>
		<SimpleData name="REMARK">MUTHA RIVER</SimpleData>
		<SimpleData name="AREA">894079</SimpleData>
		<SimpleData name="Shape_Length">13543.8492989511</SimpleData>
		<SimpleData name="Shape_Area">894079.934517502</SimpleData>
	</SchemaData></ExtendedData>
      <MultiGeometry><Polygon><outerBoundaryIs><LinearRing><coordinates>73.86163674,18.52813578 73.86168267,18.52804539 73.86152196,18.52805519 73.86105268,18.52737619 73.86071341,18.52710115 73.86026187,18.52660562 73.85985883,18.52619359 73.85972759,18.52606716 73.8593015,18.52578113 73.85861332,18.52527992 73.85853443,18.52505076 73.85840744,18.52471617 73.85855201,18.52454883 73.85848308,18.52447758 73.85841575,18.52440751 73.8583725,18.52436357 73.85832805,18.52432945 73.85828017,18.52429781 73.85826674,18.52428945 73.85804212,18.52416177 73.85793093,18.52408966 73.85792386,18.5240778 73.85791739,18.52406564 73.85789134,18.52410896 73.85780522,18.52424079 73.85766309,18.52411265 73.8575968,18.52401174 73.85768019,18.52391806 73.85753234,18.52372308 73.85713473,18.52336298 73.85692095,18.52313138 73.85682835,18.52301579 73.85668074,18.52282673 73.85637835,18.52247701 73.85620751,18.522314 73.85581874,18.52198404 73.85565249,18.52186049 73.85553071,18.52177725 73.85545594,18.52172785 73.85527088,18.52163875 73.85525586,18.52163605 73.85524072,18.52163406 73.85522549,18.52163278 73.85521022,18.5216322 73.85519494,18.52163234 73.85517968,18.52163318 73.85516448,18.52163474 73.85514938,18.521637 73.85498166,18.52160923 73.85483617,18.52159722 73.85468044,18.52154699 73.85467508,18.52156689 73.85465819,18.52158573 73.85464698,18.52161482 73.85444398,18.52155321 73.85444474,18.5215445 73.85427896,18.52149519 73.85427902,18.5214858 73.85420151,18.52145298 73.85416522,18.52139849 73.85410449,18.5213792 73.85405825,18.52136198 73.85406123,18.52135294 73.8539801,18.52130387 73.85386608,18.52123307 73.85369623,18.52112978 73.8529253,18.52098016 73.85176596,18.52075315 73.85167594,18.52075307 73.85118368,18.52065356 73.85090315,18.52059463 73.85086339,18.52058198 73.85071741,18.52053098 73.84999585,18.5203698 73.84970108,18.52031871 73.84888417,18.52012161 73.84888414,18.52009897 73.84883549,18.5200977 73.84870965,18.52011566 73.84869612,18.52010976 73.84852236,18.51987833 73.84849016,18.51985233 73.84828879,18.51964222 73.84809131,18.5194337 73.84804364,18.51937834 73.84787931,18.51921332 73.8477222,18.51904064 73.84755332,18.51888646 73.84746306,18.51880153 73.84741009,18.51840692 73.84739708,18.51832684 73.84731106,18.51830808 73.84712234,18.51812316 73.84702466,18.51801423 73.8468661,18.51775661 73.8467282,18.51753511 73.84652632,18.51739399 73.84643785,18.51716911 73.84651319,18.51697371 73.84654863,18.51686083 73.84649787,18.5168021 73.84642832,18.51672471 73.84626684,18.5168603 73.84622136,18.51678433 73.84624567,18.51676434 73.84623001,18.51667689 73.84621653,18.51662444 73.84615844,18.51658693 73.8461161,18.51652247 73.8460446,18.51642712 73.84599198,18.51635002 73.84597385,18.51635282 73.84579004,18.51639543 73.84575383,18.51629379 73.84571819,18.51619137 73.84567363,18.51605908 73.84566228,18.5160378 73.845651,18.51602376 73.84561023,18.515971 73.84555816,18.51589936 73.84538281,18.5156612 73.84529231,18.51553719 73.84521729,18.51524691 73.84516437,18.51500409 73.84510648,18.51493261 73.84508084,18.51490041 73.84507499,18.51490506 73.84505108,18.51487447 73.84501152,18.51482342 73.8450066,18.51481448 73.84492525,18.51468436 73.84479832,18.51450137 73.84475638,18.51444134 73.84474285,18.51441273 73.84470203,18.51433582 73.84468055,18.514295 73.84461487,18.5141659 73.84456293,18.51407649 73.84452134,18.51402051 73.84432854,18.51381874 73.84424848,18.51376645 73.84419137,18.5136993 73.84413096,18.51362991 73.84386711,18.51328215 73.84341824,18.51295125 73.84324194,18.51280147 73.84314439,18.51264329 73.84299151,18.51248707 73.84274669,18.51218827 73.84273979,18.51217865 73.84272966,18.51216986 73.84240226,18.5117358 73.84239602,18.51172418 73.84238279,18.51171799 73.84238072,18.51171476 73.84237451,18.51169148 73.84227552,18.51152085 73.84220445,18.51139605 73.84215992,18.51132199 73.84212713,18.51126261 73.84211379,18.5112609 73.84210523,18.51125101 73.84202566,18.51106481 73.84190987,18.51091455 73.84190209,18.51090602 73.84189872,18.5109028 73.84189491,18.51090005 73.84189074,18.51089783 73.84180312,18.5108542 73.84174341,18.51082545 73.84173982,18.51082341 73.84173654,18.51082093 73.84173365,18.51081804 73.8417312,18.5108148 73.84172924,18.51081128 73.84169013,18.51075745 73.84163184,18.51068023 73.84156424,18.51059192 73.84149991,18.51050191 73.84144189,18.51043016 73.8413989,18.51037467 73.84127528,18.51021913 73.84115134,18.51005853 73.8410537,18.50993444 73.84099604,18.50986409 73.84096272,18.50982244 73.84092918,18.5097577 73.84084315,18.50958404 73.84076752,18.50942733 73.84061955,18.50942011 73.84048884,18.50925976 73.84035185,18.5090701 73.84025853,18.5089542 73.84007281,18.50878562 73.83897188,18.50809618 73.83851983,18.50770093 73.83717326,18.50571907 73.83762148,18.50167182 73.83751688,18.5007896 73.83737038,18.50036018 73.83731254,18.50021483 73.83728435,18.50012678 73.83719608,18.49989489 73.83704217,18.49937651 73.83696282,18.49912355 73.83644764,18.49816909 73.83641934,18.49811889 73.83316981,18.49567653 73.83229442,18.49458416 73.83060156,18.4916745 73.83040908,18.49116436 73.82835639,18.48862974 73.82809672,18.48754851 73.82704926,18.48820631 73.82715665,18.48851854 73.82744138,18.48894024 73.82789446,18.48964906 73.82846126,18.49057743 73.82892423,18.49111225 73.83011648,18.49269098 73.83086064,18.49416778 73.8310363,18.49441248 73.83130443,18.49478598 73.83187353,18.49557874 73.83098739,18.49432723 73.83204515,18.4958178 73.83245679,18.49620975 73.83368848,18.49730029 73.83486039,18.49800438 73.83542109,18.49868274 73.83571322,18.49943899 73.83623095,18.50076425 73.83617849,18.50207963 73.83623901,18.50292897 73.83624802,18.50334761 73.83606638,18.50409375 73.83594378,18.50471578 73.83590196,18.50546465 73.83585788,18.50575488 73.83600352,18.506352 73.83617631,18.50683374 73.83663686,18.50744573 73.8368408,18.50790706 73.83691856,18.50804363 73.83712994,18.50824969 73.83737775,18.50851 73.83758012,18.50872258 73.83847773,18.50926196 73.83878946,18.50955438 73.83897395,18.50974087 73.83912927,18.50989788 73.83933548,18.51013649 73.8394479,18.51026657 73.83951843,18.51034922 73.83965561,18.51050996 73.83976657,18.51065874 73.8398446,18.51077883 73.83990486,18.51087158 73.83999355,18.51101355 73.84038096,18.51161895 73.84078023,18.51250688 73.84099164,18.51284723 73.84155975,18.51332836 73.84210408,18.51381256 73.8423253,18.51376726 73.84238669,18.51379762 73.84230226,18.51392446 73.84231272,18.5139308 73.84243685,18.51401232 73.84247159,18.5140357 73.84275222,18.51418562 73.8429934,18.51448223 73.84348834,18.51530009 73.84353633,18.51541948 73.84370718,18.51570485 73.84415333,18.51649648 73.84427098,18.51667332 73.84430663,18.51672626 73.84439627,18.51686683 73.84504141,18.51754576 73.84541363,18.51808948 73.84544892,18.5181487 73.84555375,18.51825426 73.84613732,18.51870276 73.84674839,18.51941926 73.84760172,18.52049422 73.84808091,18.52110056 73.84854379,18.52124512 73.84926528,18.52164261 73.84945706,18.52169422 73.84953575,18.52170346 73.84949607,18.52181388 73.84965606,18.52179558 73.84967442,18.5219175 73.85013372,18.52185408 73.85016957,18.5218464 73.85015006,18.52168647 73.85015865,18.52168389 73.85040567,18.52170859 73.85040581,18.52172431 73.85047507,18.5217277 73.85048531,18.52192467 73.85048561,18.52192754 73.850499,18.5219263 73.8505369,18.52192648 73.85056156,18.52192874 73.85060456,18.52193176 73.8506392,18.52193181 73.8520076,18.52207641 73.85235425,18.52218459 73.85243531,18.5222151 73.85262518,18.52228551 73.85269199,18.52230982 73.85279585,18.52235328 73.85291994,18.52240085 73.85304687,18.52245157 73.85333188,18.52256888 73.85359335,18.5226884 73.85367496,18.52272154 73.85385846,18.52279706 73.85409874,18.52289337 73.85425886,18.52295625 73.85438945,18.52301348 73.85453202,18.52304803 73.85494823,18.52330216 73.85505444,18.5233192 73.85537626,18.52361975 73.85540828,18.52364275 73.85571943,18.52390569 73.85615708,18.52445811 73.85655574,18.52491388 73.85666294,18.52499304 73.85701786,18.52532529 73.85703885,18.52535017 73.85712867,18.52556823 73.85729733,18.52597772 73.85757539,18.52628582 73.85799282,18.52665342 73.85870527,18.52730239 73.85881134,18.52739021 73.85888374,18.52750079 73.85888662,18.52761773 73.85905481,18.52770918 73.8593175,18.52833018 73.85971833,18.52870266 73.8598094,18.52978518 73.8598411,18.5298644 73.85983701,18.52992306 73.859849,18.53010216 73.85988352,18.53061759 73.85989516,18.53077156 73.86017888,18.53077096 73.8601788,18.53077003 73.86124734,18.53076426 73.86124494,18.53076379 73.86124074,18.5307623 73.86123685,18.5307602 73.86123217,18.53075386 73.86122803,18.53074718 73.86122445,18.53074022 73.86122145,18.530733 73.86121906,18.53072559 73.86121728,18.53071802 73.86121613,18.53071034 73.86121562,18.53070261 73.86121574,18.53069485 73.8612165,18.53068712 73.86121708,18.5306001 73.86119339,18.53059995 73.86119411,18.53049152 73.86112496,18.5304911 73.86115971,18.52996435 73.86116304,18.5299139 73.86143345,18.52927048 73.86150447,18.52882376 73.86158635,18.52826163 73.86163674,18.52813578</coordinates></LinearRing></outerBoundaryIs></Polygon></MultiGeometry>
  </Placemark>
  <Placemark id="pmcwater_body.7">
	<name></name>
	<Style><LineStyle><color>ff0000ff</color></LineStyle><PolyStyle><fill>0</fill></PolyStyle></Style>
	<ExtendedData><SchemaData schemaUrl="#pmcwater_body">
		<SimpleData name="OBJECTID_1">7</SimpleData>
		<SimpleData name="REMARK">MULA RIVER</SimpleData>
		<SimpleData name="AREA">242229</SimpleData>
		<SimpleData name="Shape_Length">4494.11278249125</SimpleData>
		<SimpleData name="Shape_Area">242228.517919574</SimpleData>
	</SchemaData></ExtendedData>
      <MultiGeometry><Polygon><outerBoundaryIs><LinearRing><coordinates>73.87405653,18.55839994 73.8740712,18.55831132 73.87395816,18.55769044 73.8736416,18.55715481 73.87328361,18.55623703 73.87148128,18.5547769 73.86949969,18.55526694 73.86799061,18.55524594 73.86663999,18.55511062 73.86349008,18.55386003 73.86253559,18.55379729 73.85980092,18.55240567 73.8581539,18.550951 73.85747147,18.55003809 73.85644756,18.55073942 73.85744587,18.55188395 73.8578553,18.55213593 73.85840687,18.55252781 73.85943561,18.55314888 73.85995806,18.55342149 73.86051191,18.55364746 73.86106248,18.55391111 73.86150607,18.5541555 73.86199015,18.55451663 73.86223471,18.55463378 73.86280579,18.55485317 73.86301356,18.55496706 73.8633217,18.55507303 73.86416877,18.55528844 73.86527346,18.55568103 73.86670667,18.55593154 73.86828857,18.55613566 73.87019163,18.55628929 73.87114295,18.55627185 73.87204348,18.55678625 73.87234019,18.55738714 73.87253612,18.55845498 73.87405653,18.55839994</coordinates></LinearRing></outerBoundaryIs></Polygon></MultiGeometry>
  </Placemark>
  <Placemark id="pmcwater_body.8">
	<name>मुळा नदी</name>
	<Style><LineStyle><color>ff0000ff</color></LineStyle><PolyStyle><fill>0</fill></PolyStyle></Style>
	<ExtendedData><SchemaData schemaUrl="#pmcwater_body">
		<SimpleData name="OBJECTID_1">8</SimpleData>
		<SimpleData name="REMARK">MULA RIVER</SimpleData>
		<SimpleData name="AREA">2121580</SimpleData>
		<SimpleData name="Shape_Length">31944.3641025284</SimpleData>
		<SimpleData name="Shape_Area">2048009.0421058</SimpleData>
	</SchemaData></ExtendedData>
      <MultiGeometry><Polygon><outerBoundaryIs><LinearRing><coordinates>73.83121608,18.57288572 73.83125008,18.57289276 73.83173557,18.57377463 73.83174873,18.57377193 73.83191803,18.57379605 73.83213887,18.57386992 73.83230415,18.57397641 73.83256928,18.57414944 73.83292813,18.57442605 73.83310348,18.57457874 73.83321004,18.57467498 73.83336149,18.57478138 73.83353036,18.57486812 73.8336788,18.57490858 73.83392109,18.57498659 73.83412437,18.57509991 73.83430349,18.57520648 73.83459314,18.57541318 73.83479272,18.57556272 73.83486851,18.57560604 73.83511113,18.57569467 73.83533758,18.57577257 73.83547555,18.57583673 73.83558327,18.57587169 73.83598747,18.57601213 73.83624736,18.57605858 73.83644921,18.57609148 73.83673582,18.57608834 73.83707909,18.57608519 73.83775829,18.57604004 73.83797764,18.57601375 73.83817442,18.57595781 73.83833331,18.57590356 73.83873063,18.57574741 73.84000497,18.57517696 73.84079172,18.57485045 73.84150905,18.57449698 73.84227359,18.57415759 73.84289692,18.57389677 73.84336189,18.57369147 73.84373186,18.57355766 73.84420837,18.57341966 73.84442855,18.57336388 73.84488861,18.57329434 73.8454004,18.57325939 73.84595184,18.57327038 73.84623867,18.57331476 73.8468531,18.57343578 73.84748025,18.57367427 73.84838359,18.57408488 73.84891989,18.57438205 73.84953272,18.57474291 73.84994994,18.57508125 73.85020117,18.57530762 73.85049534,18.57564521 73.8508226,18.57622149 73.85107259,18.57678048 73.85129416,18.57737289 73.85164908,18.57821073 73.85189902,18.57877644 73.85214763,18.57943873 73.85237843,18.5800339 73.85258502,18.58058847 73.85275268,18.58097279 73.85304223,18.58144635 73.85316797,18.58163136 73.85331236,18.58181688 73.85357552,18.58209986 73.85374036,18.58223907 73.85397578,18.58241641 73.85401299,18.58244157 73.85406334,18.5824579 73.85418292,18.58246219 73.85439777,18.5824724 73.85450266,18.58249989 73.85477358,18.58258712 73.85499174,18.58266146 73.85512955,18.58273531 73.8553273,18.58285259 73.85551144,18.58298371 73.85560844,18.5830844 73.8557293,18.58317596 73.85585588,18.58325153 73.85600348,18.58333677 73.85626427,18.58346479 73.85643063,18.5835482 73.85667843,18.5836619 73.8568442,18.58374661 73.85720756,18.58389161 73.857564,18.58404174 73.85790478,18.58408935 73.85822382,18.58413595 73.85866698,18.58417497 73.85890988,18.58421553 73.85975689,18.58431009 73.86037602,18.58436483 73.86071245,18.58443946 73.86127262,18.58449594 73.86195008,18.58454734 73.86249788,18.58455902 73.86288176,18.58454738 73.8632848,18.58453842 73.86373939,18.58446857 73.86408572,18.58437573 73.86454833,18.58421886 73.86498615,18.58402607 73.86520072,18.58392127 73.8652988,18.58380953 73.86564914,18.5834207 73.86593778,18.58317628 73.86629362,18.58273992 73.86641387,18.58253747 73.86705811,18.58138964 73.86726489,18.58112128 73.86758815,18.58072344 73.86807195,18.58020162 73.86842262,18.57987552 73.8689716,18.57945203 73.86955829,18.57897775 73.86993715,18.57872996 73.87023848,18.57855101 73.87063752,18.57835022 73.87103788,18.57808672 73.8713614,18.57754391 73.87291983,18.5765941 73.87083367,18.57571571 73.86982586,18.57666466 73.86907874,18.57695966 73.86897599,18.57718712 73.86874349,18.57754539 73.86824151,18.57805388 73.86763971,18.5785766 73.86678635,18.57939804 73.86613713,18.58013099 73.86574681,18.58069006 73.86538148,18.5813486 73.86501923,18.58183766 73.86463926,18.58222134 73.86425056,18.5825348 73.86368385,18.58282245 73.86297383,18.58300238 73.86230139,18.5830685 73.86101934,18.58298999 73.86004424,18.58288761 73.85850587,18.58267876 73.8580572,18.58247861 73.85752477,18.58221696 73.8569434,18.58190019 73.85580264,18.58150862 73.85531089,18.58130986 73.85512288,18.58115993 73.85488629,18.58090006 73.85468426,18.58037206 73.85439366,18.57958718 73.85408339,18.57871851 73.85374165,18.57797109 73.85324666,18.57689915 73.85299009,18.57625748 73.85276834,18.57584967 73.85268557,18.57578574 73.85254522,18.57568222 73.85250083,18.57565362 73.8523828,18.57560353 73.85225879,18.57554276 73.85220959,18.57549922 73.85216464,18.57543606 73.85208722,18.57529409 73.85202194,18.57518756 73.85191539,18.57508472 73.85181934,18.57495187 73.85177598,18.57482522 73.85171464,18.5747434 73.85163544,18.57468675 73.85155047,18.57461321 73.85152184,18.57455618 73.8514579,18.57433365 73.85134039,18.5740899 73.85114608,18.57379253 73.85099598,18.57361234 73.85069077,18.57338834 73.85042573,18.57324119 73.84982359,18.57301968 73.84924832,18.57274954 73.84878119,18.57256644 73.84828808,18.5723786 73.84770132,18.57224099 73.84691121,18.57207378 73.84656943,18.57205252 73.84638212,18.57202065 73.8462567,18.57199344 73.84605093,18.5719727 73.84577011,18.57197941 73.84550094,18.57197919 73.84522045,18.57199278 73.84498676,18.57199692 73.84483188,18.5720085 73.84447179,18.57205896 73.84415687,18.57214706 73.84409405,18.57216035 73.84296199,18.57259042 73.84164752,18.57294537 73.84107908,18.57316893 73.84083906,18.57336752 73.83864995,18.57439963 73.83789635,18.57465292 73.83705778,18.57472283 73.83639644,18.57453787 73.836195,18.57446934 73.83533453,18.57429707 73.83487089,18.5741067 73.83443846,18.57384583 73.83403332,18.57378034 73.83361162,18.57348588 73.83336716,18.57332086 73.83301472,18.57314061 73.83290622,18.57298902 73.83284825,18.5729312 73.83264294,18.57212293 73.83260144,18.57186868 73.83194945,18.5721208 73.83189325,18.57221829 73.8317895,18.57223524 73.83167688,18.57220275 73.83134346,18.57183451 73.83129334,18.57169819 73.83136652,18.5715042 73.83134268,18.57135193 73.8313814,18.57032831 73.83129145,18.56995832 73.83050672,18.56891931 73.83014222,18.56838102 73.82920391,18.56792089 73.82824482,18.56789494 73.82780123,18.56781549 73.82608757,18.56803977 73.82451849,18.56840234 73.82406789,18.56850749 73.82365118,18.56861569 73.82310349,18.56876116 73.82254782,18.56888894 73.82229036,18.56897282 73.82229512,18.56908947 73.82072579,18.56915917 73.8199614,18.56874011 73.81931356,18.56885538 73.81865136,18.56890106 73.81775761,18.56876932 73.81644002,18.56847902 73.81584873,18.56826838 73.81546749,18.5681654 73.81531153,18.56810925 73.81513202,18.56803904 73.8147589,18.56797284 73.81430481,18.5678433 73.81326502,18.56762989 73.81234797,18.5673576 73.81160719,18.56737222 73.81145761,18.56737585 73.81123992,18.56739864 73.81107126,18.56740505 73.80988416,18.56757616 73.80892658,18.56784813 73.80819722,18.56796157 73.80785029,18.56795708 73.80785014,18.5679533 73.80745156,18.56806199 73.80659487,18.56828246 73.80642127,18.56831606 73.80617776,18.56836543 73.80591128,18.5684285 73.80570234,18.56849517 73.80527979,18.56864317 73.80493431,18.56865081 73.80356519,18.56911607 73.80335208,18.56915275 73.80287247,18.5692201 73.80246906,18.56921066 73.80208217,18.56921833 73.802042,18.56920067 73.80093724,18.56888391 73.79955944,18.5683523 73.7979289,18.56734218 73.79614036,18.56538158 73.79584625,18.56509379 73.793918,18.56320244 73.79380564,18.56311057 73.79371828,18.5630948 73.78973873,18.56334621 73.78969649,18.5633587 73.7896923,18.56336162 73.7882766,18.56462666 73.7881071,18.56507569 73.78802702,18.56776098 73.78806284,18.56782199 73.78945248,18.56909394 73.789579,18.56929253 73.7896065,18.56949338 73.78953026,18.57068712 73.78950466,18.57080864 73.7894521,18.57091086 73.78890088,18.57171903 73.78879954,18.57181207 73.78656342,18.57328165 73.78476411,18.5746096 73.78436398,18.57490699 73.78308375,18.5759285 73.78219523,18.57663687 73.78081896,18.57798392 73.78079059,18.57802478 73.7803436,18.57927186 73.7797514,18.58116227 73.77942027,18.58244811 73.77876499,18.58419755 73.7778251,18.58593367 73.77730962,18.58669631 73.77658703,18.58724012 73.77585031,18.58755761 73.77573417,18.58759463 73.77553987,18.58760559 73.77354288,18.58738091 73.77178283,18.586888 73.77041327,18.5864699 73.76855088,18.58639029 73.76545025,18.58713861 73.76356896,18.5875576 73.7634269,18.58757126 73.76189477,18.58743566 73.76173131,18.58739156 73.75978318,18.5863976 73.75878766,18.58580665 73.75871468,18.58603643 73.75832324,18.58679562 73.75845146,18.5869132 73.75854931,18.58699515 73.75866024,18.58708343 73.75872339,18.58712345 73.7587951,18.58719063 73.75905664,18.5874058 73.75915227,18.5874919 73.75926979,18.58757605 73.75951385,18.58770899 73.75972088,18.58781875 73.76013416,18.58800788 73.76023239,18.58803771 73.76028813,18.58805067 73.7603429,18.58806376 73.76038565,18.58808184 73.76042862,18.58811027 73.76046528,18.58815008 73.7604995,18.58818928 73.76060906,18.58823871 73.76088682,18.58835745 73.76108177,18.58844033 73.76120582,18.58849396 73.76134716,18.58856796 73.76145405,18.588632 73.76159835,18.5887076 73.7618275,18.58883211 73.76195546,18.5888918 73.76204591,18.58893259 73.76209642,18.58893651 73.76220461,18.58893722 73.76232643,18.58894349 73.76235139,18.58896933 73.76236923,18.58898657 73.76245557,18.58897002 73.76257789,18.58894686 73.7626876,18.58892875 73.76276317,18.58891213 73.762978,18.58885299 73.76312024,18.58881956 73.7632714,18.58879908 73.76345174,18.58879597 73.76359824,18.58879693 73.76369212,18.58879479 73.76391898,18.58877289 73.76411988,18.58874531 73.76450828,18.58867612 73.76475313,18.58862959 73.76500609,18.58857925 73.76532648,18.58851175 73.76577201,18.58837988 73.76643726,18.58817579 73.76694633,18.5880113 73.76738317,18.58786324 73.76759489,18.5877832 73.76776723,18.58774119 73.76798249,18.58771024 73.76850265,18.58762692 73.76869976,18.58760232 73.76904521,18.58757405 73.76925358,18.58755599 73.76949585,18.58754679 73.7697515,18.58756572 73.76997796,18.58760399 73.7701836,18.58765278 73.77042759,18.58771908 73.7706883,18.58778342 73.7710114,18.58786534 73.77140791,18.58795466 73.77160671,18.58800988 73.77182356,18.58807384 73.77215884,18.58818209 73.77259013,18.58832942 73.77283256,18.58840047 73.77306758,18.58846493 73.7733086,18.58852062 73.7737708,18.58862476 73.77398185,18.58867596 73.77418388,18.58871626 73.77428603,18.58873642 73.77438909,18.58873501 73.77458034,18.58871451 73.77476302,18.58869667 73.77491702,18.58870039 73.77503951,18.58872293 73.77517927,18.58872384 73.7752769,18.58873461 73.77542776,18.58872874 73.77557148,18.58871941 73.77571172,18.58869295 73.77582326,18.58866287 73.77593126,18.58862593 73.77603571,18.58858213 73.77611156,18.58855233 73.77630467,18.58852793 73.77663376,18.5884851 73.77682593,18.5884315 73.77698416,18.58836894 73.77707143,18.58831862 73.77712945,18.58826628 73.77722697,18.58817479 73.77729521,18.58804269 73.7773275,18.58791892 73.77738701,18.58775256 73.77744825,18.58765385 73.77760353,18.58755123 73.7777761,18.58743235 73.77798916,18.58725373 73.77818917,18.58703023 73.77833697,18.58686423 73.77845924,18.5867662 73.77855269,18.58669866 73.7787295,18.58647492 73.77886306,18.5862986 73.77896787,18.58614254 73.77900645,18.58596045 73.77902354,18.5858019 73.77905639,18.58567387 73.77908451,18.58556755 73.77913545,18.58546138 73.77933449,18.58507896 73.77951871,18.58456402 73.77958224,18.58441885 73.77969527,18.58414828 73.77980835,18.58387109 73.779915,18.58352107 73.78000031,18.5832437 73.78013544,18.58286747 73.78026579,18.58251191 73.78032414,18.58229574 73.78052749,18.58170901 73.78070653,18.58116428 73.78081499,18.58076588 73.78084625,18.58061644 73.78088711,18.58044536 73.78096729,18.58021278 73.7810476,18.57996005 73.78106705,18.57977312 73.78113217,18.57957384 73.7812666,18.57935599 73.78140492,18.57907586 73.78155054,18.57878806 73.7816802,18.57855088 73.7817333,18.57845572 73.78183619,18.57829623 73.78196151,18.57812456 73.7820655,18.57799278 73.78215246,18.57789742 73.7822947,18.5777773 73.78241576,18.57768139 73.78262291,18.57753429 73.78274819,18.57744146 73.78284762,18.57735899 73.78296793,18.57729125 73.78316629,18.57703217 73.78327252,18.57692095 73.78336856,18.57680182 73.78355958,18.57665396 73.78381376,18.57653136 73.78390523,18.57646999 73.78408483,18.57635755 73.78431286,18.57624543 73.78454101,18.57611556 73.78468693,18.5760242 73.78478801,18.57595386 73.78484066,18.5758832 73.78495313,18.57578098 73.78506267,18.57569146 73.78522729,18.57558958 73.78541849,18.57541686 73.78568505,18.57512394 73.78599647,18.57480646 73.78635549,18.57449976 73.786634,18.57428685 73.78685679,18.57411934 73.78707945,18.57396942 73.78739462,18.57379546 73.78785223,18.57354023 73.78806738,18.57340787 73.78833047,18.57328637 73.78875032,18.57311463 73.78902457,18.57298264 73.78932111,18.57282968 73.78954006,18.57268325 73.78973709,18.57250149 73.78991944,18.57230556 73.79003505,18.57214792 73.79016935,18.57195871 73.79040405,18.57173659 73.79041263,18.5715677 73.79040044,18.57120158 73.79035509,18.57103734 73.79034236,18.57097966 73.79030611,18.57079 73.79036237,18.57056247 73.79055097,18.57018838 73.79063024,18.56980665 73.79062859,18.56950652 73.79058998,18.5692943 73.79045018,18.56895286 73.79023087,18.56834141 73.79000723,18.56789037 73.78980114,18.56734117 73.7896628,18.56673484 73.78953279,18.56628141 73.78939899,18.56595003 73.78925634,18.56547777 73.78929562,18.56536792 73.78936271,18.56513715 73.78946045,18.5649286 73.78967473,18.56470455 73.78983328,18.56461015 73.79000307,18.56455986 73.79023069,18.56449893 73.7903697,18.56444478 73.79067446,18.56436599 73.79112356,18.56421422 73.79140124,18.56415361 73.79160935,18.56412926 73.79182904,18.56410131 73.79207932,18.56410291 73.79228416,18.56413473 73.79250356,18.56421835 73.79269284,18.56428944 73.7929209,18.56436901 73.79308442,18.5644235 73.79323924,18.56449026 73.79336594,18.56461064 73.79351072,18.56480241 73.79363404,18.56496825 73.79376858,18.56507743 73.79391928,18.56519703 73.79405898,18.56534234 73.79419337,18.56547215 73.79424705,18.56553439 73.79445687,18.56580903 73.79477023,18.5661913 73.79504417,18.56656202 73.7951813,18.56672479 73.79536267,18.56689702 73.79570053,18.56716649 73.79590901,18.56729583 73.79624334,18.56750504 73.79675545,18.5677992 73.79718444,18.5680316 73.79762984,18.56831034 73.79795222,18.56853453 73.7982159,18.56867928 73.7985579,18.56891573 73.79885318,18.56909052 73.79924344,18.56925064 73.79972691,18.56946336 73.80041525,18.56969167 73.80083423,18.5698325 73.80118335,18.56995384 73.80145288,18.57001749 73.80179955,18.57007764 73.80230918,18.57012375 73.80275731,18.57012044 73.80319035,18.5700933 73.80357985,18.57001207 73.80408276,18.56985982 73.80454812,18.56969538 73.80513287,18.5695018 73.80554132,18.56940276 73.80615988,18.56925661 73.80663105,18.56915796 73.80710866,18.56903544 73.80790058,18.56881925 73.8081706,18.56877911 73.80869548,18.56864995 73.80921658,18.56858748 73.80971251,18.5685368 73.81018916,18.56855177 73.81048378,18.56858351 73.81065937,18.5685906 73.81091673,18.56856831 73.81112051,18.56850304 73.81130931,18.56841456 73.8116861,18.56835715 73.81201159,18.5683363 73.81229425,18.568315 73.81259272,18.56833996 73.81305225,18.56841977 73.81336255,18.56848711 73.81353642,18.56855001 73.81414261,18.56871926 73.81433598,18.56877048 73.81465052,18.56880707 73.8149246,18.56885879 73.81516634,18.568918 73.81541626,18.56896188 73.81570669,18.56898294 73.81618365,18.56905955 73.81648582,18.56913453 73.81702505,18.56927933 73.81778122,18.56941167 73.81838544,18.56952453 73.81876923,18.56959317 73.81923482,18.56965452 73.81964315,18.5697194 73.82009069,18.56974188 73.82044602,18.56978695 73.82069101,18.56982744 73.82106296,18.56984668 73.82136504,18.56986602 73.82169736,18.56985059 73.82206839,18.56983109 73.8226661,18.56974823 73.82291344,18.56973504 73.82356845,18.56961641 73.82407401,18.56950665 73.82440723,18.56940003 73.82478409,18.56927965 73.82527436,18.56914525 73.8257648,18.56898631 73.82616246,18.56883661 73.82662453,18.5686714 73.82682574,18.56862356 73.82720223,18.56855717 73.8275373,18.56851999 73.82784117,18.56852678 73.82813444,18.5685668 73.82840896,18.56864431 73.82861384,18.56873085 73.82903464,18.56898135 73.8293715,18.56923096 73.82952792,18.56941757 73.82977381,18.56969413 73.82998871,18.56998711 73.83015912,18.57037343 73.83027887,18.5708538 73.83042477,18.57139297 73.83055609,18.57181656 73.83075164,18.57218192 73.83091436,18.57237478 73.83108442,18.57258545 73.83118179,18.57274144 73.83121608,18.57288572</coordinates></LinearRing></outerBoundaryIs></Polygon></MultiGeometry>
  </Placemark>
  <Placemark id="pmcwater_body.9">
	<name></name>
	<Style><LineStyle><color>ff0000ff</color></LineStyle><PolyStyle><fill>0</fill></PolyStyle></Style>
	<ExtendedData><SchemaData schemaUrl="#pmcwater_body">
		<SimpleData name="OBJECTID_1">9</SimpleData>
		<SimpleData name="REMARK">MUTHA RIVER</SimpleData>
		<SimpleData name="AREA">443651</SimpleData>
		<SimpleData name="Shape_Length">8486.42588881736</SimpleData>
		<SimpleData name="Shape_Area">443650.725999043</SimpleData>
	</SchemaData></ExtendedData>
      <MultiGeometry><Polygon><outerBoundaryIs><LinearRing><coordinates>73.79964874,18.46610578 73.7995822,18.46614412 73.79944991,18.46626238 73.79941198,18.46635824 73.7993254,18.46652273 73.79907664,18.46709554 73.79898968,18.4673139 73.7989495,18.46740166 73.79930033,18.46746047 73.80039635,18.46776804 73.80138134,18.46810426 73.80189114,18.46826794 73.80220252,18.46842452 73.8024425,18.46861082 73.80332539,18.46918683 73.8043782,18.46985998 73.804981,18.4703356 73.80525876,18.47052177 73.80558181,18.47074634 73.80588788,18.47096594 73.80616524,18.47120955 73.80638063,18.47137883 73.80658237,18.47155243 73.8068345,18.47177774 73.80738209,18.47230858 73.80791267,18.47290851 73.80808317,18.47306456 73.80829377,18.47329835 73.80840997,18.47347127 73.80860227,18.47373938 73.80876731,18.47403314 73.80929317,18.47493693 73.80950518,18.47534183 73.80967475,18.4757249 73.80995567,18.47620189 73.81014577,18.47654593 73.81029749,18.47682857 73.81044161,18.47704174 73.81076818,18.47761428 73.81093497,18.47791325 73.81112719,18.47823251 73.81126997,18.47844779 73.81139511,18.47857351 73.81147981,18.4787158 73.81159698,18.47890154 73.81171431,18.47906324 73.81185558,18.47921564 73.81272128,18.48009484 73.81367463,18.48056527 73.81536875,18.48129306 73.81623978,18.481859 73.81664483,18.48191929 73.81673883,18.48196013 73.81700669,18.48165021 73.81865096,18.48253482 73.81893244,18.48265808 73.81896117,18.48267067 73.8194913,18.48283449 73.82126416,18.48327757 73.82272797,18.48316471 73.82315359,18.48316227 73.82345211,18.4832285 73.82356683,18.48317275 73.82477582,18.48410406 73.82528384,18.48389651 73.82600202,18.48461208 73.82679596,18.48739262 73.82664406,18.4876355 73.82704926,18.48820631 73.82809672,18.48754851 73.82798502,18.48735766 73.82791469,18.48720966 73.82775395,18.48670504 73.82769193,18.48644015 73.82757765,18.48608097 73.82749838,18.4859059 73.82742996,18.48576794 73.8273921,18.48562223 73.82736505,18.48547788 73.82730243,18.48530292 73.82721304,18.48496846 73.82705417,18.48466595 73.82689217,18.48435128 73.82678204,18.48422629 73.82665261,18.48408265 73.82640986,18.48387748 73.8263155,18.48379097 73.82617247,18.48360758 73.82604611,18.48342164 73.82436035,18.48236465 73.82370493,18.48216464 73.82249681,18.48219624 73.82195915,18.48216294 73.82170888,18.48217541 73.82145514,18.4821598 73.82119415,18.48212661 73.82097721,18.48210772 73.82087785,18.48211061 73.82076003,18.48212391 73.82062028,18.48211602 73.8204769,18.4821011 73.8203263,18.48206509 73.82020879,18.48203279 73.8200178,18.481986 73.8197975,18.48192149 73.81947285,18.48181715 73.81924151,18.48175257 73.81898069,18.48169483 73.81861338,18.48158007 73.81841212,18.48149567 73.81828802,18.48142363 73.81817389,18.48135165 73.81786527,18.4811898 73.81765915,18.48108637 73.81748297,18.48097837 73.81717931,18.48081897 73.81692602,18.48069148 73.81645882,18.48048455 73.81538846,18.48011091 73.81491465,18.47991911 73.81417504,18.4795958 73.81401356,18.47950984 73.8138087,18.47940302 73.81364169,18.47931151 73.81349054,18.47921406 73.81316236,18.47896998 73.81289047,18.47872838 73.81260122,18.47846679 73.81231213,18.47818159 73.81164819,18.4776323 73.81159605,18.47750771 73.81153133,18.4771652 73.8114015,18.47682726 73.81124504,18.47652708 73.81112711,18.47627033 73.81100839,18.47608363 73.81088024,18.47590084 73.81071133,18.47552964 73.81015215,18.47475268 73.80986623,18.47401369 73.80952778,18.47329703 73.80918723,18.47248644 73.80908899,18.47231599 73.80894146,18.47208203 73.80880988,18.47189001 73.80824219,18.47149639 73.80762458,18.47106016 73.80742441,18.47092661 73.80702658,18.4706313 73.80643178,18.47025537 73.80608418,18.47003039 73.8056504,18.4697322 73.80535896,18.46954087 73.80516383,18.46940648 73.80473023,18.4690829 73.80428516,18.46876325 73.80275069,18.4678394 73.80110997,18.46702036 73.79996226,18.46640819 73.79964874,18.46610578</coordinates></LinearRing></outerBoundaryIs></Polygon></MultiGeometry>
  </Placemark>
  <Placemark id="pmcwater_body.10">
	<name>मुठा नदी</name>
	<Style><LineStyle><color>ff0000ff</color></LineStyle><PolyStyle><fill>0</fill></PolyStyle></Style>
	<ExtendedData><SchemaData schemaUrl="#pmcwater_body">
		<SimpleData name="OBJECTID_1">10</SimpleData>
		<SimpleData name="REMARK">MUTHA RIVER</SimpleData>
		<SimpleData name="AREA">1123430</SimpleData>
		<SimpleData name="Shape_Length">11597.9150691861</SimpleData>
		<SimpleData name="Shape_Area">1183854.35437495</SimpleData>
	</SchemaData></ExtendedData>
      <MultiGeometry><Polygon><outerBoundaryIs><LinearRing><coordinates>73.77141304,18.45636899 73.77163051,18.45670036 73.77228915,18.45818094 73.77242209,18.45837116 73.77256146,18.45850213 73.77269189,18.45857571 73.77286925,18.45865477 73.77292422,18.45867928 73.77315329,18.45886397 73.77320928,18.45891316 73.773283,18.45896918 73.77328603,18.45897148 73.77330765,18.45898791 73.7736044,18.45930415 73.77382156,18.45941912 73.77400579,18.4595829 73.77431202,18.45978619 73.77442479,18.45988806 73.77453011,18.46001593 73.7746711,18.46013209 73.77486852,18.46023475 73.7751793,18.46041833 73.77561562,18.46067608 73.77641597,18.46087086 73.77710692,18.46092879 73.77725547,18.46094125 73.77752375,18.46096374 73.77823044,18.46110427 73.77914826,18.46113857 73.77990109,18.46135266 73.78082167,18.46158378 73.78111828,18.46160074 73.78111868,18.46160076 73.78126963,18.46160939 73.78135631,18.46162791 73.78167904,18.46169686 73.78186493,18.461785 73.78189128,18.46179313 73.78196106,18.46182529 73.78277534,18.46220049 73.78291247,18.4623627 73.78300942,18.46241869 73.78295619,18.46241442 73.78356172,18.46313074 73.78420464,18.46335148 73.78463257,18.46346142 73.78490549,18.46351848 73.78521483,18.46356648 73.78529398,18.46360217 73.78541585,18.46363205 73.78553453,18.46363281 73.78566117,18.46362021 73.78572687,18.46378879 73.78578772,18.46374029 73.78604341,18.46353648 73.78739444,18.46328565 73.78829314,18.46313716 73.78887056,18.46326225 73.78903343,18.4635265 73.7892644,18.46378167 73.7892906,18.46381062 73.7895811,18.46403527 73.79008176,18.46417631 73.79082513,18.46445917 73.79120933,18.46472734 73.79159366,18.46489673 73.7920765,18.46511502 73.79249363,18.4651799 73.79295576,18.46540365 73.79304946,18.46544902 73.7931252,18.46548569 73.79318951,18.46550329 73.79331259,18.46553698 73.79400239,18.46557676 73.794277,18.46562475 73.79472354,18.46561984 73.7947543,18.46563516 73.79482839,18.46567204 73.79484023,18.46567794 73.79494987,18.46573253 73.79500013,18.46575755 73.7950199,18.46577325 73.79502011,18.46577341 73.79514639,18.46587372 73.79567718,18.46606577 73.7956955,18.4660724 73.79582987,18.46612102 73.79639798,18.46652432 73.79641779,18.46653838 73.79682377,18.46662756 73.79687389,18.46665117 73.79716644,18.46677892 73.79753667,18.46699111 73.79780467,18.4671327 73.79802336,18.46721893 73.79814121,18.4672654 73.79814662,18.46726708 73.79859734,18.46734263 73.79860851,18.4673445 73.7989495,18.46740166 73.79898968,18.4673139 73.79907664,18.46709554 73.7993254,18.46652273 73.79941198,18.46635824 73.79944991,18.46626238 73.7995822,18.46614412 73.79964874,18.46610578 73.79894998,18.46543178 73.79871597,18.46511605 73.79859139,18.46486386 73.7985051,18.46463287 73.79846616,18.46452968 73.7983885,18.46444941 73.79827976,18.46439148 73.79810475,18.46431164 73.79796629,18.46424964 73.79781415,18.46410606 73.79773655,18.4639969 73.79764144,18.46384689 73.79752861,18.46368318 73.79741807,18.46358871 73.79731559,18.46351386 73.79719237,18.46345852 73.79708274,18.46342508 73.79693639,18.46340451 73.79681132,18.46335559 73.79649888,18.46317415 73.7960216,18.46285493 73.79567703,18.46266329 73.7953245,18.46244741 73.79500311,18.46226591 73.79476623,18.46217467 73.79418814,18.46194403 73.79398829,18.4618845 73.79374433,18.46182146 73.793484,18.46176511 73.7932482,18.46173187 73.79300641,18.46168994 73.79260912,18.46163407 73.79239297,18.46159372 73.79201355,18.46151564 73.7917052,18.46146514 73.79146022,18.46142001 73.79119872,18.46133121 73.79096852,18.46123574 73.79084964,18.46120692 73.7906887,18.46121303 73.79054999,18.46125139 73.79041841,18.46133974 73.79027878,18.46148283 73.79013137,18.46159333 73.78993083,18.4617035 73.78978375,18.4617674 73.78957922,18.46184106 73.78935285,18.46190867 73.78915077,18.46193574 73.78892973,18.46193839 73.78864049,18.46193755 73.78841525,18.461926 73.78807316,18.46194403 73.78789314,18.46191003 73.78757581,18.46179931 73.78735654,18.46169175 73.787174,18.46164004 73.786957,18.46160094 73.786828,18.46161328 73.78664343,18.46167136 73.78651004,18.46173918 73.78631937,18.46190439 73.78624169,18.46195857 73.78611335,18.46201565 73.78589352,18.4620713 73.78569389,18.46209142 73.78549283,18.46208732 73.78522789,18.46205623 73.78500639,18.46198425 73.78469905,18.46182686 73.7845784,18.46178416 73.78433448,18.461683 73.78408709,18.46156212 73.78381845,18.46140343 73.7835943,18.46128328 73.78339852,18.46116747 73.78321151,18.46104755 73.7829997,18.46094768 73.78279059,18.46086303 73.78263153,18.46080577 73.78244867,18.46071712 73.78223688,18.46060603 73.78199007,18.46044337 73.78167246,18.46027505 73.78142529,18.46016435 73.78110141,18.46011291 73.78093517,18.46011703 73.78060667,18.46013686 73.78019272,18.46010665 73.77997352,18.46011902 73.77966791,18.4600918 73.77949295,18.46005522 73.77900529,18.4599714 73.7787652,18.45991756 73.77854935,18.45989185 73.77830697,18.45986414 73.7779508,18.45981961 73.77760832,18.45977282 73.77736597,18.45974109 73.77715533,18.45969951 73.77688799,18.45962136 73.77666684,18.45957568 73.77654192,18.45953068 73.77636875,18.45946182 73.77614602,18.45933244 73.77576497,18.45913331 73.77545791,18.45902345 73.77523482,18.45894424 73.7749933,18.45886742 73.77473637,18.45873781 73.77459505,18.45863153 73.7745003,18.45852836 73.77435192,18.458417 73.77415751,18.45824663 73.77394222,18.45807862 73.77378376,18.45798807 73.77358878,18.45789976 73.77340719,18.45778488 73.77324042,18.45765033 73.77311847,18.4575265 73.77300226,18.45738253 73.77289329,18.45721509 73.77274144,18.45693117 73.77254469,18.45649717 73.77240279,18.45614159 73.77233263,18.45597735 73.77221375,18.45567006 73.77214271,18.45544626 73.77207108,18.45528255 73.77199752,18.45515742 73.77181052,18.45485191 73.77161312,18.4543765 73.77135872,18.45359453 73.77129571,18.45344134 73.77120557,18.45334908 73.77106252,18.45318518 73.77098824,18.45297432 73.77096742,18.45287962 73.77093874,18.45273373 73.77089008,18.45241367 73.77082557,18.45213665 73.77076027,18.45164147 73.77068469,18.45110077 73.77067619,18.4508079 73.77061909,18.45050655 73.77058071,18.45019945 73.77053903,18.44997741 73.77051958,18.44965882 73.77052225,18.44949908 73.77056701,18.44912223 73.77064457,18.44888052 73.77073112,18.44854405 73.77083824,18.44827192 73.77095027,18.44790352 73.77099798,18.44772869 73.77101721,18.44739179 73.77103574,18.44716652 73.7710673,18.44686982 73.77105315,18.44649258 73.77100326,18.44632163 73.77092469,18.44612854 73.77076666,18.44586672 73.77069619,18.44571781 73.77068182,18.44537267 73.77069952,18.44522265 73.77069817,18.44482142 73.77066694,18.44448018 73.77055653,18.4440301 73.77040257,18.44378837 73.77031429,18.44368034 73.77027008,18.44365359 73.77018334,18.4436248 73.77009289,18.44359599 73.77003939,18.44357447 73.77001005,18.443539 73.76999,18.44349653 73.76998656,18.44345946 73.76999242,18.4434154 73.77001505,18.44336014 73.77003057,18.44325792 73.77002723,18.44320851 73.77004235,18.44316274 73.77007789,18.44310828 73.7701227,18.44305036 73.77014343,18.44299757 73.77014929,18.4429535 73.77014399,18.44291818 73.77013316,18.44288107 73.77010198,18.44284205 73.77004277,18.44276583 73.76996868,18.44261061 73.76994563,18.44251233 73.76995053,18.44238027 73.76995933,18.44225578 73.76997982,18.44215778 73.76996458,18.44207465 73.76989406,18.4419723 73.76989859,18.44189307 73.76997932,18.44167092 73.76852702,18.44155966 73.76803187,18.4416864 73.76655694,18.44203446 73.76515631,18.44237468 73.76423082,18.4425902 73.76338169,18.44277892 73.76271599,18.44293951 73.76258069,18.44288739 73.7614471,18.44259018 73.76167049,18.44284898 73.76185651,18.44362349 73.76212089,18.44415496 73.76255131,18.44464136 73.76269791,18.4448005 73.76286303,18.44493685 73.76310596,18.44513534 73.76355862,18.44545653 73.76371062,18.44552897 73.76390693,18.44566409 73.76414537,18.44574161 73.76449361,18.44571698 73.7646371,18.44570314 73.76478237,18.44570962 73.76503681,18.44571877 73.76517233,18.44573443 73.76533699,18.44574105 73.76562552,18.44573505 73.76577655,18.44573173 73.76590255,18.44576049 73.76607794,18.44581751 73.7662869,18.44590698 73.76646943,18.44598579 73.76659747,18.44604465 73.76673726,18.44614041 73.76684723,18.44620559 73.76701997,18.44631847 73.7671637,18.44639032 73.76747938,18.44648551 73.76770666,18.44653427 73.76785754,18.44655244 73.76811222,18.44655195 73.76826092,18.44655721 73.76831041,18.44657043 73.76836436,18.44660985 73.7684466,18.44677612 73.76853202,18.4469855 73.76864871,18.44719508 73.76873342,18.44727262 73.76883798,18.44733125 73.76889304,18.44735795 73.7689204,18.44739501 73.76893234,18.44759518 73.7689477,18.44783093 73.76898132,18.4479425 73.769023,18.44807278 73.76913204,18.44831727 73.76924123,18.44854145 73.76930755,18.44880191 73.76941815,18.44943843 73.76944258,18.44959704 73.76951777,18.44980881 73.76964862,18.45008795 73.76973225,18.45031196 73.76982376,18.45062541 73.76990601,18.45108287 73.76998309,18.45162782 73.77003801,18.45230821 73.77011411,18.45298088 73.77013834,18.45316794 73.77020435,18.45347309 73.77040332,18.45402397 73.77060167,18.45445904 73.77082092,18.45491707 73.7709623,18.4551619 73.77118875,18.45572966 73.77132979,18.45609582 73.77141304,18.45636899</coordinates></LinearRing></outerBoundaryIs></Polygon></MultiGeometry>
  </Placemark>
  <Placemark id="pmcwater_body.11">
	<name>पवना नदी</name>
	<Style><LineStyle><color>ff0000ff</color></LineStyle><PolyStyle><fill>0</fill></PolyStyle></Style>
	<ExtendedData><SchemaData schemaUrl="#pmcwater_body">
		<SimpleData name="OBJECTID_1">11</SimpleData>
		<SimpleData name="REMARK">PAVANA RIVER</SimpleData>
		<SimpleData name="AREA">2121580</SimpleData>
		<SimpleData name="Shape_Length">1660.2421599873</SimpleData>
		<SimpleData name="Shape_Area">73570.7482829021</SimpleData>
	</SchemaData></ExtendedData>
      <MultiGeometry><Polygon><outerBoundaryIs><LinearRing><coordinates>73.83173557,18.57377463 73.83125008,18.57289276 73.83121608,18.57288572 73.83121775,18.57289275 73.83118556,18.57296305 73.83106361,18.57302273 73.83090462,18.57308722 73.830772,18.57316194 73.83066051,18.57323679 73.8305647,18.57333692 73.83036797,18.57351197 73.83024564,18.57362705 73.83011805,18.57373705 73.82993533,18.57394466 73.82974903,18.57413992 73.82958899,18.57436052 73.82942887,18.57459119 73.82924761,18.57482174 73.82913422,18.57511003 73.82908038,18.57525574 73.82900537,18.57540637 73.82889851,18.57557693 73.82872246,18.57581758 73.82861601,18.57592772 73.82839669,18.57605007 73.82815816,18.57615435 73.82800992,18.57619372 73.82776665,18.57621739 73.82756587,18.5762111 73.82741269,18.57620008 73.8271382,18.57615305 73.82691117,18.57612142 73.82671059,18.57608492 73.82656287,18.57604874 73.82628327,18.5759765 73.8261144,18.57594019 73.8263708,18.57668668 73.82662496,18.57678672 73.82689642,18.57687373 73.82719559,18.57693795 73.82756035,18.5769796 73.82796162,18.57696612 73.82825794,18.57694499 73.82857174,18.57688459 73.82878562,18.57683013 73.8289892,18.57677232 73.82911007,18.57672384 73.82941615,18.57655427 73.82959263,18.57643066 73.82983172,18.57621554 73.82999185,18.57596384 73.83011979,18.57571583 73.830291,18.57533765 73.83033953,18.57514511 73.83044876,18.57495295 73.83058642,18.57471985 73.83081776,18.5744256 73.83105554,18.57417639 73.83133589,18.57396053 73.83156171,18.57381032 73.83173557,18.57377463</coordinates></LinearRing></outerBoundaryIs></Polygon></MultiGeometry>
  </Placemark>
  <Placemark id="pmcwater_body.12">
	<name></name>
	<Style><LineStyle><color>ff0000ff</color></LineStyle><PolyStyle><fill>0</fill></PolyStyle></Style>
	<ExtendedData><SchemaData schemaUrl="#pmcwater_body">
		<SimpleData name="OBJECTID_1">12</SimpleData>
		<SimpleData name="REMARK"></SimpleData>
		<SimpleData name="AREA">0</SimpleData>
		<SimpleData name="Shape_Length">13077.3956559207</SimpleData>
		<SimpleData name="Shape_Area">1098041.8316422</SimpleData>
	</SchemaData></ExtendedData>
      <MultiGeometry><Polygon><outerBoundaryIs><LinearRing><coordinates>73.99155688,18.51763308 73.99155996,18.51771989 73.99164902,18.51776603 73.99164461,18.51787719 73.99156748,18.51793177 73.99157291,18.51808465 73.99157475,18.51813629 73.99158571,18.51883214 73.99156865,18.51943244 73.99147275,18.52040031 73.99131127,18.52100916 73.99106856,18.52149493 73.99080269,18.52195259 73.99037132,18.52242371 73.98991701,18.52295927 73.98929,18.52345087 73.98845854,18.52418525 73.98763144,18.52481637 73.98679371,18.52533552 73.98589637,18.52576109 73.98527682,18.52625989 73.9847823,18.5265958 73.98398266,18.52702907 73.98344734,18.52727008 73.98264748,18.5277392 73.98186591,18.52816681 73.98156377,18.52839473 73.979865,18.52954761 73.97954786,18.52976827 73.97868723,18.53033747 73.97826631,18.5308122 73.97770726,18.53124674 73.97723046,18.53176062 73.976677,18.53251798 73.97652073,18.53274595 73.97627951,18.53284507 73.9761057,18.53298759 73.97584683,18.53352417 73.97509447,18.53484712 73.97462187,18.53591335 73.97436126,18.53674043 73.97396875,18.53824465 73.97326679,18.53930819 73.9717171,18.54065548 73.97068858,18.54161825 73.9699043,18.5419798 73.96916904,18.5423201 73.9681225,18.5425224 73.9667781,18.54259403 73.96683004,18.54440429 73.96726933,18.54419718 73.9676761,18.54408463 73.96876025,18.54388254 73.96942357,18.54362793 73.96961527,18.5435142 73.96981143,18.54340768 73.97052008,18.54311744 73.9713723,18.54271322 73.97228843,18.54231006 73.97272682,18.54193944 73.97315894,18.54136077 73.97330387,18.54101725 73.97386993,18.54067601 73.97423359,18.54022608 73.97453734,18.53973279 73.97473448,18.53946128 73.97487679,18.53917872 73.97516666,18.53849167 73.97522955,18.53803293 73.97539773,18.53757477 73.97544387,18.53740286 73.97538444,18.5372806 73.97542289,18.53713734 73.97545443,18.53689363 73.97538807,18.5366709 73.97553236,18.53643497 73.97570784,18.53601271 73.97585947,18.53580551 73.97595052,18.53566971 73.97610233,18.53543382 73.9763222,18.53513375 73.97649394,18.53483269 73.9765253,18.53461766 73.97667736,18.53433874 73.97680549,18.53428922 73.9768665,18.53414609 73.97704057,18.53396053 73.97738151,18.53353199 73.97765457,18.53313894 73.97805716,18.53245967 73.97897894,18.53172583 73.97993092,18.53097062 73.98048283,18.53047148 73.98096612,18.53012977 73.98207991,18.52947668 73.98320204,18.52885089 73.98418941,18.52825246 73.98462932,18.52803963 73.98518629,18.52772605 73.98680508,18.52695047 73.98773512,18.52650594 73.98876113,18.52593758 73.98996916,18.52518942 73.99063625,18.52427482 73.99148379,18.52352238 73.99160715,18.52334921 73.99167303,18.52322762 73.9917386,18.52315863 73.99184428,18.52308985 73.99194024,18.52296842 73.99205091,18.52290206 73.99211507,18.52284773 73.99216433,18.52275198 73.9921224,18.52267929 73.99211282,18.52260273 73.99217082,18.52254326 73.9922613,18.52250071 73.99223669,18.52242406 73.99225986,18.52231898 73.9923229,18.52225476 73.99237833,18.52220484 73.99242928,18.52216506 73.99249982,18.521985 73.99250336,18.52182832 73.99253813,18.521775 73.99259241,18.52160194 73.99263385,18.52147962 73.99264992,18.52141096 73.9926694,18.5212945 73.99264485,18.5212077 73.99265477,18.52111809 73.99269273,18.52105552 73.9927367,18.52103782 73.99276528,18.52097222 73.99276558,18.52092141 73.99279119,18.5208289 73.99282938,18.52072748 73.99285491,18.52064692 73.99288346,18.5205867 73.99293528,18.52052164 73.99290947,18.52042544 73.99290072,18.52031481 73.99293,18.52012966 73.99293691,18.52001911 73.99295968,18.51987577 73.99297603,18.51975929 73.99298011,18.51959791 73.99299654,18.51946649 73.99293122,18.51938545 73.99288804,18.51926865 73.9929635,18.51922422 73.99303684,18.51915841 73.99303661,18.51913842 73.99313019,18.51911453 73.9931088,18.51902176 73.99303394,18.51890282 73.9929533,18.51882516 73.99291318,18.51872034 73.99289166,18.51865148 73.99286398,18.51856167 73.99286754,18.51848996 73.99286791,18.5184272 73.992865,18.51838833 73.99287797,18.51831367 73.99288509,18.51816726 73.99287947,18.51805664 73.99286454,18.51793104 73.99286493,18.51786528 73.99284373,18.51773964 73.992813,18.51763786 73.99289158,18.51759344 73.99291876,18.5175614 73.99270757,18.51640879 73.99255534,18.51501161 73.99264159,18.51397913 73.99259999,18.51361931 73.99261709,18.51346863 73.99268856,18.51324664 73.9927999,18.51306552 73.99284895,18.51282189 73.99301485,18.51220421 73.99329521,18.51140769 73.99353641,18.51087696 73.99390306,18.51032299 73.99459591,18.509705 73.99563363,18.50904102 73.99671402,18.50858049 73.99699384,18.50831883 73.99859158,18.50803897 73.99911193,18.50798792 73.99989582,18.50787251 74.00104265,18.50783673 74.00134419,18.50770084 74.00201209,18.50766072 74.00320838,18.50752357 74.00228575,18.50546 74.00176622,18.50558638 74.00103697,18.50557536 74.00013554,18.5054343 73.99952671,18.50540239 73.99894139,18.50520562 73.9983859,18.50505204 73.99786491,18.50491299 73.99742144,18.50488913 73.99705216,18.5050378 73.99640357,18.50537868 73.99579467,18.50574558 73.99523562,18.5062017 73.99482093,18.50640034 73.99408088,18.50694874 73.99322977,18.5077182 73.99233737,18.50860292 73.99173155,18.50933853 73.99135146,18.51004664 73.99118354,18.5104747 73.99094625,18.51119075 73.99092621,18.51204425 73.99097426,18.51282638 73.99105864,18.5138239 73.99110695,18.51456156 73.99124527,18.515337 73.99129517,18.51580352 73.99141081,18.51660036 73.99155538,18.51759102 73.99155688,18.51763308</coordinates></LinearRing></outerBoundaryIs></Polygon></MultiGeometry>
  </Placemark>
</Folder>
</Document></kml>
